X,Y,OBJECTID,name,operator,owner,address,is24Hours,carParkCount,hasCarparkCost,maxTimeLimit,hasTouristAttraction,latitude,longitude,currentType,dateFirstOperational,numberOfConnectors,connectorsList,hasChargingCost
1366541.2354,5153202.1642,1,YHA MT COOK,MERIDIAN ENERGY LIMITED,MERIDIAN ENERGY LIMITED,"4 Kitchener Dr, Mount Cook National Park 7999, New Zealand",True,1,False,Unlimited,False,-43.73745,170.100913,AC,2020/05/01 00:00:00+00,1,"{AC, 22 kW, Type 2 Socketed, Status: Operative, Count:1}",True
1570148.5238,5173542.4743,2,CHRISTCHURCH ADVENTURE PARK,MERIDIAN ENERGY LIMITED,MERIDIAN ENERGY LIMITED,"Worsleys Rd, Cashmere, Christchurch 8022, New Zealand",False,4,False,Unlimited,True,-43.59049,172.630201,AC,2020/05/01 00:00:00+00,4,"{AC, 44 kW, Type 2 Socketed, Status: Operative, Count:4}",False
1822955.3955,5488854.3202,3,PUKAHA NATIONAL WILDLIFE CENTRE,MERIDIAN ENERGY LIMITED,MERIDIAN ENERGY LIMITED,"85379 State Highway 2, Mount Bruce 5881",True,2,False,Unlimited,True,-40.721068,175.639788,AC,2020/08/12 00:00:00+00,2,"{AC, 7 kW, Type 2 Socketed, Status: Operative, Count:2}",False
1458426.7115,5092867.9041,4,TIMARU AIRPORT,MERIDIAN ENERGY LIMITED,MERIDIAN ENERGY LIMITED,"186 Falvey Road, Levels 7975, New Zealand",False,4,False,Unlimited,False,-44.303657,171.225107,AC,2020/10/09 00:00:00+00,4,"{AC, 44 kW, Type 2 Socketed, Status: Operative, Count:4}",False
1574161.4056,5177263.1348,5,THE TANNERY,MERIDIAN ENERGY LIMITED,MERIDIAN ENERGY LIMITED,"3 Garlands Road, Woolston, Christchurch 8023",True,4,False,240,False,-43.557139,172.680089,AC,2020/10/09 00:00:00+00,4,"{AC, 44 kW, Type 2 Socketed, Status: Operative, Count:4}",False
1568290.4372,5179226.0935,6,TOWER JUNCTION SHOPPING MALL,MERIDIAN ENERGY LIMITED,MERIDIAN ENERGY LIMITED,"Whiteleigh Avenue, Addington, Christchurch 8011",False,2,False,180,False,-43.539238,172.607516,AC,2020/08/25 00:00:00+00,2,"{AC, 44 kW, Type 2 Socketed, Status: Operative, Count:2}",False
1568058.0099,5179103.6026,7,TOWER JUNCTION SHOPPING MALL,MERIDIAN ENERGY LIMITED,MERIDIAN ENERGY LIMITED,"Whiteleigh Avenue, Addington, Christchurch 8011",False,2,False,180,False,-43.540331,172.604632,AC,2020/08/25 00:00:00+00,2,"{AC, 44 kW, Type 2 Socketed, Status: Operative, Count:2}",False
1567017.748,5205250.0815,8,VICTORIA PARK & RANGIORA LIBRARY,MERIDIAN ENERGY LIMITED,MERIDIAN ENERGY LIMITED,"131 Percival Street, Rangiora 7400",True,4,False,120,False,-43.3048577589673,172.593335181474,AC,2020/12/23 00:00:00+00,4,"{AC, 44 kW, Type 2 Socketed, Status: Operative, Count:4}",False
1759726.6353,5428336.3443,9,WILLIAMS PARK EASTBOURNE,MERIDIAN ENERGY LIMITED,MERIDIAN ENERGY LIMITED,"611 Marine Drive, Eastbourne 5013",True,3,False,180,False,-41.2806205053318,174.907278103088,Mixed,2021/05/14 00:00:00+00,4,"{AC, 44 kW, Type 2 Socketed, Status: Operative, Count:2},{DC, 25 kW, CHAdeMO, Status: Operative, Count:1},{DC, 25 kW, Type 2 CCS, Status: Operative, Count:1}",False
1758843.5704,5427254.5844,10,OROUA STREET EASTBOURNE,MERIDIAN ENERGY LIMITED,MERIDIAN ENERGY LIMITED,"11 Oroua Street, Eastbourne 5013",True,2,False,180,False,-41.2905336020686,174.89702121918,AC,2021/05/13 00:00:00+00,2,"{AC, 44 kW, Type 2 Socketed, Status: Operative, Count:2}",False
1371898.1493,5192040.4222,11,YHA FRANZ JOSEF,MERIDIAN ENERGY LIMITED,MERIDIAN ENERGY LIMITED,"2/4 Cron St, Franz Josef Glacier 7886, New Zealand",True,1,False,Unlimited,False,-43.3898355015131,170.183686019038,AC,2020/05/01 00:00:00+00,1,"{AC, 22 kW, Type 2 Socketed, Status: Operative, Count:1}",True
1186140.2023,4957354.9591,12,YHA TE ANAU,MERIDIAN ENERGY LIMITED,MERIDIAN ENERGY LIMITED,"29 Mokonui St, Te Anau 9600, New Zealand",True,2,False,Unlimited,False,-45.4147023,167.710591,AC,2020/05/01 00:00:00+00,1,"{AC, 22 kW, Type 2 Socketed, Status: Operative, Count:1}",True
1758984.8781,5916769.1139,13,NZ BLOOD SERVICE,MERIDIAN ENERGY LIMITED,MERIDIAN ENERGY LIMITED,"71 Great South Road, Epsom, Auckland 1051",False,4,False,Unlimited,False,-36.8816643029201,174.783985143939,AC,2020/05/01 00:00:00+00,4,"{AC, 44 kW, Type 2 Socketed, Status: Operative, Count:4}",False
1585903.589,5292215.2602,14,HANMER SPRINGS THERMAL POOLS AND SPA - CAR PARK ,MERIDIAN ENERGY LIMITED,MERIDIAN ENERGY LIMITED,"1 Jack Pass Road, Hanmer Springs 7334",True,5,False,240,True,-42.5223110428867,172.828379125165,AC,2020/09/07 00:00:00+00,4,"{AC, 44 kW, Type 2 Socketed, Status: Operative, Count:4}",False
1754242.7339,5445577.4162,15,"WHITIREIA COMMUNITY POLYTECHNIC, PORIRUA CAMPUS",MERIDIAN ENERGY LIMITED,MERIDIAN ENERGY LIMITED,"3 Wi Neera Drive, Elsdon, Porirua 5022",False,4,False,180,False,-41.1264606241312,174.837479731634,AC,2021/07/20 00:00:00+00,4,"{AC, 14 kW, Type 2 Socketed, Status: Operative, Count:4}",False
1747481.0796,5910722.1506,16,THE RISE,MERIDIAN ENERGY LIMITED,MERIDIAN ENERGY LIMITED,"490 Titirangi Road, Auckland 0604",False,2,False,90,False,-36.9380197928244,174.656128531182,AC,2021/08/13 00:00:00+00,2,"{AC, 22 kW, Type 2 Socketed, Status: Operative, Count:2}",False
1564159.3988,5177665.4866,17,SILKY OTTER CINEMA,MERIDIAN ENERGY LIMITED,MERIDIAN ENERGY LIMITED,"90 The Runway, Wigram, Christchurch 8042",True,4,False,180,False,-43.5531026851514,172.556282579727,AC,2021/07/21 00:00:00+00,4,"{AC, 44 kW, Type 2 Socketed, Status: Operative, Count:4}",False
1784244.7242,5863764.2899,18,Hampton Downs,WEL Networks Ltd,WEL Networks Ltd,"20 Hampton Downs Road, Hampton Downs",True,2,False,Unlimited,True,-37.3545575081454,175.080300240821,DC,2018/01/01 00:00:00+00,3,"{DC, 50 kW, CHAdeMO, Status: Operative, Count:1},{DC, 50 kW, Type 2 Tethered, Status: Operative, Count:1},{DC, 50 kW, Type 2 CCS, Status: Operative, Count:1}",False
1795854.6037,5821625.9065,19,Maui Street,WEL Networks Ltd,WEL Networks Ltd,"114 Maui St, Pukete",True,2,False,Unlimited,False,-37.7317137166904,175.222543851019,DC,2018/01/01 00:00:00+00,3,"{DC, 50 kW, CHAdeMO, Status: Operative, Count:1},{DC, 50 kW, Type 2 Tethered, Status: Operative, Count:1},{DC, 50 kW, Type 2 CCS, Status: Operative, Count:1}",False
1802446.4096,5816265.1687,20,Claudelands,WEL Networks Ltd,WEL Networks Ltd,"160 Peachgrove Road, Hamilton East",True,3,False,Unlimited,False,-37.7785588433362,175.298786948482,Mixed,2018/01/01 00:00:00+00,5,"{DC, 25 kW, CHAdeMO, Status: Operative, Count:2},{DC, 25 kW, Type 2 CCS, Status: Operative, Count:2},{AC, 22 kW, Type 2 Socketed, Status: Operative, Count:1}",False
1804444.2343,5805314.9952,21,Mystery Creek,WEL Networks Ltd,WEL Networks Ltd,"153 Ingram Road, Waitomo Fuel,  Mystery Creek",True,2,False,Unlimited,False,-37.876728596303,175.324548424172,DC,2018/01/01 00:00:00+00,3,"{DC, 50 kW, CHAdeMO, Status: Operative, Count:1},{DC, 50 kW, Type 2 Tethered, Status: Operative, Count:1},{DC, 50 kW, Type 2 CCS, Status: Operative, Count:1}",False
1790627.8067,5840290.9699,22,Huntly,WEL Networks Ltd,WEL Networks Ltd,"20 Tumate Mahuta Drive, Huntly",True,3,False,Unlimited,False,-37.5647004263661,175.158396850283,Mixed,2018/01/01 00:00:00+00,5,"{DC, 25 kW, CHAdeMO, Status: Operative, Count:2},{DC, 25 kW, Type 2 CCS, Status: Operative, Count:2},{AC, 7 kW, Type 2 Socketed, Status: Operative, Count:1}",False
1788279.2473,5857234.3983,23,Te Kauwhata,WEL Networks Ltd,WEL Networks Ltd,"16 Wayside Road, Te Kauwhata",True,2,False,Unlimited,False,-37.4125665624,175.127487397762,DC,2018/01/01 00:00:00+00,3,"{DC, 50 kW, CHAdeMO, Status: Operative, Count:1},{DC, 50 kW, Type 2 Tethered, Status: Operative, Count:1},{DC, 50 kW, Type 2 CCS, Status: Operative, Count:1}",False
1800352.3397,5821493.6165,24,St James,WEL Networks Ltd,WEL Networks Ltd,"23 Horsham Downs Road, Rototuna",True,3,False,Unlimited,False,-37.7319320139187,175.273583803848,Mixed,2018/01/01 00:00:00+00,5,"{DC, 25 kW, CHAdeMO, Status: Operative, Count:2},{DC, 25 kW, Type 2 CCS, Status: Operative, Count:2},{AC, 22 kW, Type 2 Socketed, Status: Operative, Count:1}",False
1800878.0159,5815217.0934,25,Caro Street,WEL Networks Ltd,WEL Networks Ltd,"4 Caro St, Hamilton",True,2,False,Unlimited,False,-37.7883439028825,175.28128105207,DC,2018/01/01 00:00:00+00,3,"{DC, 50 kW, CHAdeMO, Status: Operative, Count:1},{DC, 50 kW, Type 2 Tethered, Status: Operative, Count:1},{DC, 50 kW, Type 2 CCS, Status: Operative, Count:1}",False
1798967.8596,5822584.0905,26,Rototuna North,WEL Networks Ltd,WEL Networks Ltd,"3 Fergy Place, Rototuna North, Hamilton 3210",True,3,False,Unlimited,False,-37.7224127829775,175.257585760048,Mixed,2018/01/01 00:00:00+00,5,"{DC, 25 kW, CHAdeMO, Status: Operative, Count:2},{DC, 25 kW, Type 2 CCS, Status: Operative, Count:2},{AC, 22 kW, Type 2 Socketed, Status: Operative, Count:1}",False
1764660.0144,5814695.6629,27,Raglan,WEL Networks Ltd,WEL Networks Ltd,"43 Bow St, Raglan",True,2,False,Unlimited,True,-37.8002868100065,174.870311446816,DC,2018/01/01 00:00:00+00,3,"{DC, 50 kW, CHAdeMO, Status: Operative, Count:1},{DC, 50 kW, Type 2 Tethered, Status: Operative, Count:1},{DC, 50 kW, Type 2 CCS, Status: Operative, Count:1}",False
1801312.546,5814620.5569,28,Hamilton South,WEL Networks Ltd,WEL Networks Ltd,"58 Anglesea Street, Hamilton",True,3,False,Unlimited,False,-37.7936206972454,175.286377835335,Mixed,2018/01/01 00:00:00+00,5,"{DC, 25 kW, CHAdeMO, Status: Operative, Count:2},{DC, 25 kW, Type 2 CCS, Status: Operative, Count:2},{AC, 22 kW, Type 2 Socketed, Status: Operative, Count:1}",False
1800280.3746,5815967.0821,29,Hamilton North,WEL Networks Ltd,WEL Networks Ltd,"551 Anglesea Street, Hamilton",True,3,False,Unlimited,False,-37.7817206103916,175.274291725517,Mixed,2018/01/01 00:00:00+00,5,"{DC, 25 kW, CHAdeMO, Status: Operative, Count:2},{DC, 25 kW, Type 2 CCS, Status: Operative, Count:2},{AC, 22 kW, Type 2 Socketed, Status: Operative, Count:1}",False
1803332.359,5816303.7716,30,Innovation Park,WEL Networks Ltd,WEL Networks Ltd,"9 Melody Lane, Hamilton East",True,2,False,Unlimited,False,-37.778014543995,175.308828634049,DC,2018/01/01 00:00:00+00,3,"{DC, 50 kW, CHAdeMO, Status: Operative, Count:1},{DC, 50 kW, Type 2 Tethered, Status: Operative, Count:1},{DC, 50 kW, Type 2 CCS, Status: Operative, Count:1}",False
1572267.7954,5196525.3555,31,KAIAPOI LIBRARY AND SERVICE CENTRE,MERIDIAN ENERGY LIMITED,MERIDIAN ENERGY LIMITED,"129 Raven Quay, Kaiapoi 7630",True,4,False,120,False,-43.38363038,172.6576248,AC,2021/09/07 00:00:00+00,4,"{AC, 44 kW, Type 2 Socketed, Status: Operative, Count:4}",False
1571057.6295,5179930.8821,32,LES MILLS CHRISTCHURCH,MERIDIAN ENERGY LIMITED,MERIDIAN ENERGY LIMITED,"203 Cashel Street, Christchurch Central City, Christchurch 8011",False,1,False,120,False,-43.53300448,172.6418037,AC,2021/09/17 00:00:00+00,2,"{AC, 44 kW, Type 2 Socketed, Status: Operative, Count:2}",False
1490917.2931,5169049.7623,33,OPUKE THERMAL POOLS & SPA,MERIDIAN ENERGY LIMITED,MERIDIAN ENERGY LIMITED,"47 Mount Hutt Station Road, Methven 7782",True,4,False,Unlimited,True,-43.623545,171.647953,AC,2021/12/01 00:00:00+00,4,"{AC, 44 kW, Type 2 Socketed, Status: Operative, Count:4}",False
1759465.1117,5431987.7618,34,SEAVIEW MARINA,MERIDIAN ENERGY LIMITED,HUTT CITY COUNCIL,"100 Port Road, Seaview, Lower Hutt 5010",True,10,False,Unlimited,False,-41.2477990547709,174.90320187807,Mixed,2021/12/23 00:00:00+00,12,"{AC, 14 kW, Type 2 Socketed, Status: Operative, Count:8},{DC, 25 kW, CHAdeMO, Status: Operative, Count:2},{DC, 25 kW, Type 2 CCS, Status: Operative, Count:2}",False
1617931.9211,5425366.6028,35,PIC'S PEANUT BUTTER WORLD,MERIDIAN ENERGY LIMITED,MERIDIAN ENERGY LIMITED,"49 Saxton Road, Stoke, Nelson 7011",True,3,False,Unlimited,True,-41.3229740856253,173.21426680684,Mixed,2021/12/23 00:00:00+00,4,"{AC, 44 kW, Type 2 Socketed, Status: Operative, Count:2},{DC, 25 kW, CHAdeMO, Status: Operative, Count:1},{DC, 25 kW, Type 2 CCS, Status: Operative, Count:1}",False
1758202.8285,5918162.0447,36,Newmarket Substation,Vector,Vector,"Cnr Seccombes & Gillies Ave,Newmarket,Auckland,1023",True,3,False,120,False,-36.869245,174.774923,Mixed,,8,"{DC, 50 kW, CHAdeMO, Status: Operative, Count:2},{DC, 50 kW, Type 2 CCS, Status: Operative, Count:2},{AC, 7 kW, Type 1 Tethered, Status: Operative, Count:1},{DC, 3 kW, Type 1 Tethered, Status: Unknown, Count:1},{DC, 3 kW, Type 2 Tethered, Status: Unknown, Count:1},{AC, 7 kW, Type 2 Tethered, Status: Operative, Count:1}",False
1757155.2977,5920831.1818,37,Hobson Street Substation,Vector,Vector,"21 Hobson St,Auckland,1010",True,2,False,120,False,-36.84537,174.762623,DC,2016/02/06 00:00:00+00,4,"{DC, 50 kW, Type 2 CCS, Status: Operative, Count:2},{DC, 50 kW, CHAdeMO, Status: Operative, Count:1},{DC, 50 kW, CHAdeMO, Status: Inoperative, Count:1}",False
1738681.7434,5928975.1048,38,Kumeu New World,Vector,Vector,"120 State Highway,Auckland,Kumeu,0810",True,2,False,120,False,-36.7748732793906,174.554016839117,DC,2016/02/06 00:00:00+00,4,"{DC, 50 kW, CHAdeMO, Status: Operative, Count:2},{DC, 50 kW, Type 2 CCS, Status: Operative, Count:2}",False
1748825.5016,5969501.6226,39,BP Connect Warkworth,Vector,Vector,"67 Auckland Road,Auckland,Warkworth,0910",True,1,False,120,False,-36.4081402,174.6598009,DC,2016/02/06 00:00:00+00,2,"{DC, 50 kW, CHAdeMO, Status: Operative, Count:1},{DC, 50 kW, Type 2 CCS, Status: Operative, Count:1}",False
1758202.8285,5918162.0447,40,Newmarket Substation,Vector,Vector,"Cnr Seccombes & Gillies Ave,Newmarket,Auckland,1023",True,3,False,120,False,-36.869245,174.774923,DC,2016/02/06 00:00:00+00,8,"{DC, 50 kW, Type 2 CCS, Status: Operative, Count:3},{DC, 50 kW, CHAdeMO, Status: Inoperative, Count:2},{DC, 50 kW, CHAdeMO, Status: Operative, Count:1},{DC, 3 kW, Type 1 Tethered, Status: Unknown, Count:1},{DC, 3 kW, Type 2 Tethered, Status: Unknown, Count:1}",False
1757835.3997,5919053.9646,41,Auckland Hospital Wilsons Car park ,Vector,Vector,"2 Park Road,Grafton,Auckland,Auckland,1023",True,1,False,120,False,-36.86127,174.770617,DC,2016/02/06 00:00:00+00,2,"{DC, 3 kW, Type 2 Tethered, Status: Unknown, Count:2}",False
1759908.8297,5915817.5482,42,McDonalds Greenlane,Vector,Vector,"356/320 Great South Rd,Greenlane,Auckland,1051",True,2,False,120,False,-36.890082,174.794549,DC,2016/02/06 00:00:00+00,4,"{DC, 50 kW, Type 2 CCS, Status: Operative, Count:2},{DC, 50 kW, CHAdeMO, Status: Inoperative, Count:2}",False
1767895.4747,5903591.6009,43,Vodafone Events Centre,Vector,Vector,"770 Great South Road,Wiri,Manukau",True,1,False,120,False,-36.998846,174.88685,DC,2016/02/06 00:00:00+00,2,"{DC, 3 kW, Type 1 Tethered, Status: Unknown, Count:1},{DC, 3 kW, Type 2 Tethered, Status: Unknown, Count:1}",False
1731121.0866,5909273.8131,44,Piha Cafe ,Vector,Vector,"20 Seaview Road,Auckland,Piha,0772",True,1,False,120,False,-36.953491,174.472725,DC,2016/02/06 00:00:00+00,1,"{DC, 3 kW, Type 2 Socketed, Status: Unknown, Count:1}",False
1743836.428,5924072.8321,45,Northwest Shopping Centre,Vector,Vector,"1/7 Fred Taylor Drive,Massey,Auckland",True,1,False,120,False,-36.81828,174.612684,DC,2016/02/06 00:00:00+00,2,"{DC, 3 kW, Type 2 Tethered, Status: Unknown, Count:2}",False
1754891.9035,5931829.1557,46,McDonalds Constellation Drive,Vector,Vector,"14-16 Constellation Drive,Rosedale,Auckland,Auckland,0632",True,2,False,120,False,-36.7466454,174.7350108,DC,2016/02/06 00:00:00+00,4,"{DC, 50 kW, Type 2 CCS, Status: Operative, Count:2},{DC, 50 kW, CHAdeMO, Status: Operative, Count:1},{DC, 50 kW, CHAdeMO, Status: Inoperative, Count:1}",False
1757975.496,5920870.6107,47,Britomart Carpark,Vector,Vector,"88 Quay Street,Auckland",True,2,False,120,False,-36.844878,174.77181,DC,2016/02/06 00:00:00+00,3,"{DC, 3 kW, Type 1 Tethered, Status: Unknown, Count:2},{DC, 3 kW, Type 2 Tethered, Status: Unknown, Count:1}",False
1758096.0858,5918612.9593,48,Vector,Vector,Vector,"101 Carlton Gore Road,Newmarket,Auckland",True,3,False,120,False,-36.8652,174.773632,DC,2016/02/06 00:00:00+00,3,"{DC, 3 kW, Type 1 Tethered, Status: Unknown, Count:2},{DC, 3 kW, Type 2 Tethered, Status: Unknown, Count:1}",False
1758433.8561,5919042.3489,49,Auckland War Memorial Museum,Vector,Vector,"32 Museum Circuit,Parnell,Auckland,Auckland,1010",True,1,False,120,False,-36.8612744768493,174.777330052779,DC,2016/02/06 00:00:00+00,2,"{DC, 3 kW, Type 1 Tethered, Status: Unknown, Count:1},{DC, 3 kW, Type 2 Tethered, Status: Unknown, Count:1}",False
1771854.9845,5897957.5542,50,Takanini Village,Vector,Vector,"30 Walters Road,Takanini,Auckland,2112",True,1,False,120,False,-37.048889,174.932611,DC,2016/02/06 00:00:00+00,2,"{DC, 50 kW, Type 2 CCS, Status: Operative, Count:1},{DC, 50 kW, CHAdeMO, Status: Operative, Count:1}",False
1749372.6653,5945729.3652,51,Kings Plant Barn,Vector,Vector,"17 Hibiscus Coast Highway,Silverdale,0993",True,2,False,120,False,-36.622275,174.6705,DC,2016/02/06 00:00:00+00,4,"{DC, 50 kW, CHAdeMO, Status: Operative, Count:2},{DC, 50 kW, Type 2 CCS, Status: Operative, Count:2}",False
1759076.4481,5903874.8332,52,Auckland Airport Shopping Centre,Vector,Vector,"Cnr George Bolt Memorial Drive & John Goulter Drive,Auckland Airport,Auckland,2022",True,2,False,120,False,-36.997828,174.787725,DC,2016/02/06 00:00:00+00,6,"{DC, 50 kW, CHAdeMO, Status: Operative, Count:3},{DC, 50 kW, Type 2 CCS, Status: Operative, Count:3}",False
1768947.6781,5914287.0833,53,BP Connect Pakuranga,Vector,Vector,"322 Pakuranga Rd,Pakuranga Heights,Auckland,2010",True,2,False,120,False,-36.902296,174.896278,DC,2016/02/06 00:00:00+00,4,"{DC, 50 kW, CHAdeMO, Status: Operative, Count:2},{DC, 50 kW, Type 2 CCS, Status: Operative, Count:2}",False
1770264.2221,5907313.6914,54,Ormiston Town Centre,Todd Property Ormiston Town Centre Limited,Todd Property Ormiston Town Centre Limited,"240 Ormiston road, Flat Bush, Auckland, 2012, New Zealand",True,14,False,Unlimited,False,-36.9648860428412,174.912617279983,AC,2021/03/25 00:00:00+00,14,"{AC, 32 kW, Type 2 Socketed, Status: Operative, Count:9},{AC, 32 kW, Type 1 Tethered, Status: Operative, Count:4},{AC, 25 kW, Type 2 Socketed, Status: Operative, Count:1}",False
1803264.1843,5816289.5839,55,Waikato Innovation Park,Hikotron,Hikotron,"Waikato Innovation Park, 1 Melody Lane, Hamilton East, Hamilton 3216",True,4,False,No Limit,False,-37.7781574798876,175.30805906559,AC,,4,"{AC, 7 kW, Type 2 Socketed, Status: Operative, Count:4}",True
1804119.0672,5790736.0755,56,Te Awamutu Events Centre,Hikotron,Hikotron,"Events Centre Car Park Mahoe Street, Te Awamutu 3800",True,4,False,No Limit,False,-38.0080929,175.3249891,AC,,4,"{AC, 7 kW, Type 2 Socketed, Status: Operative, Count:4}",True
1798859.71,5815292.2613,57,Hamilton Electric Vehicles,Hikotron,Hikotron,"Cnr West Street and, Lincoln Street, Frankton, Hamilton 3200",True,2,False,No Limit,False,-37.7881084019164,175.258355890002,AC,,2,"{AC, 7 kW, Type 2 Socketed, Status: Operative, Count:2}",True
1800775.8201,5814683.7155,58,Colonial City Motel,Hikotron,Hikotron,"2 Pembroke Lane, Hamilton Lake, Hamilton 3204",True,2,False,No Limit,False,-37.79317,175.280269,AC,,2,"{AC, 7 kW, Type 2 Socketed, Status: Operative, Count:2}",True
1811007.7497,5813085.9045,59,Matangi Factory,Hikotron,Hikotron,"452 Tauwhare Road, Tamahere 3284",True,2,False,No Limit,False,-37.805253,175.39685,AC,,2,"{AC, 7 kW, Type 2 Socketed, Status: Operative, Count:2}",True
1817311.152,5803065.6632,60,Cambridge Duke St Carpark,Hikotron,Hikotron,"Duke Street Car Park 88 Alpha Street, Cambridge 3434",True,4,False,No Limit,False,-37.8940045,175.4714022,AC,,4,"{AC, 7 kW, Type 2 Socketed, Status: Operative, Count:4}",True
1756747.6382,5920460.8048,61,WELLESLEY STREET CARPARK,MERIDIAN ENERGY LIMITED,MERIDIAN ENERGY LIMITED,"125 Wellesley Street West, Auckland 1010",False,9,True,Unlimited,False,-36.8487749421273,174.758129160788,AC,2022/12/20 00:00:00+00,9,"{AC, 22 kW, Type 2 Socketed, Status: Operative, Count:6},{AC, 44 kW, Type 2 Socketed, Status: Operative, Count:2},{AC, 11 kW, Type 2 Socketed, Status: Operative, Count:1}",False
1573172.5383,5180873.0871,62,CANTERBURY TENNIS,MERIDIAN ENERGY LIMITED,MERIDIAN ENERGY LIMITED,"110 Woodham Road, Linwood, Christchurch 8062",True,6,False,Unlimited,False,-43.5245997723138,172.668024298479,AC,2022/05/26 00:00:00+00,6,"{AC, 44 kW, Type 2 Socketed, Status: Operative, Count:6}",False
1801120.2243,5815357.5944,63,SKYCITY HAMILTON,MERIDIAN ENERGY LIMITED,MERIDIAN ENERGY LIMITED,"346 Victoria Street, Hamilton Central, Hamilton 3204",True,4,True,Unlimited,True,-37.7870252650637,175.283990731096,AC,2022/07/08 00:00:00+00,4,"{AC, 44 kW, Type 2 Socketed, Status: Operative, Count:4}",False
1244947.7104,4850415.1903,64,STADIUM SOUTHLAND,MERIDIAN ENERGY LIMITED,MERIDIAN ENERGY LIMITED,"36 Surrey Park Road, Glengarry, Invercargill 9810",True,8,False,120,False,-46.4064410420026,168.380493520412,AC,2022/04/05 00:00:00+00,8,"{AC, 44 kW, Type 2 Socketed, Status: Operative, Count:8}",False
1763468.2518,5438907.7326,65,RICOH SPORTS CENTRE,MERIDIAN ENERGY LIMITED,MERIDIAN ENERGY LIMITED,"237 Taita Drive, Lower Hutt 5011",True,4,False,180,False,-41.1847013422026,174.949101924896,AC,2022/04/29 00:00:00+00,4,"{AC, 44 kW, Type 2 Socketed, Status: Operative, Count:4}",False
1499322.6135,5138116.5366,66,"RURALCO, ASHBURTON",MERIDIAN ENERGY LIMITED,MERIDIAN ENERGY LIMITED,"97 Burnett Street, Ashburton 7700",True,4,False,Unlimited,False,-43.9031822604384,171.746306514919,AC,2022/06/21 00:00:00+00,4,"{AC, 44 kW, Type 2 Socketed, Status: Operative, Count:4}",False
1563412.5921,5182792.0426,67,"SUMMERSET RETIREMENT VILLAGE, AVONHEAD",MERIDIAN ENERGY LIMITED,MERIDIAN ENERGY LIMITED,"120 Hawthornden Road, Avonhead, Christchurch 8042",True,4,False,Unlimited,False,-43.5069070666823,172.547382482469,AC,2022/04/13 00:00:00+00,4,"{AC, 44 kW, Type 2 Socketed, Status: Operative, Count:4}",False
1822989.2092,5462586.4036,68,POWERSHOP MASTERTON,MERIDIAN ENERGY LIMITED,MERIDIAN ENERGY LIMITED,"427 Queen Street, Masterton 5801",True,2,False,Unlimited,False,-40.9574405027682,175.649590356668,AC,2022/07/27 00:00:00+00,2,"{AC, 44 kW, Type 2 Socketed, Status: Operative, Count:2}",False
1833727.8982,5535548.7799,69,ASHHURST ENGINEERING & CONSTRUCTION CO,MERIDIAN ENERGY LIMITED,MERIDIAN ENERGY LIMITED,"85 York Street, Ashhurst 4810",True,4,False,Unlimited,False,-40.2978996219884,175.749966372635,AC,2022/04/01 00:00:00+00,4,"{AC, 44 kW, Type 2 Socketed, Status: Operative, Count:4}",False
1766215.2229,5440099.5407,70,STOKES VALLEY COMMUNITY HUB,MERIDIAN ENERGY LIMITED,HUTT CITY COUNCIL,"186 Stokes Valley Road, Lower Hutt 5019",True,2,False,120,False,-41.1734131817617,174.981513117626,Mixed,2022/06/21 00:00:00+00,6,"{AC, 44 kW, Type 2 Socketed, Status: Operative, Count:2},{DC, 25 kW, CHAdeMO, Status: Operative, Count:2},{DC, 25 kW, Type 2 CCS, Status: Operative, Count:2}",False
1585362.5823,6180428.2825,71,Waitiki Landing,ChargeNet NZ,ChargeNet NZ,"State Highway 1, Waitiki Landing 0484, NZ",True,1,False,Unlimited,False,-34.517702,172.840523,DC,2019/09/28 00:00:00+00,4,"{DC, 50 kW, CHAdeMO, Status: Unknown, Count:1},{DC, 50 kW, Type 2 CCS, Status: Unknown, Count:1},{DC, 25 kW, CHAdeMO, Status: Unknown, Count:1},{DC, 25 kW, Type 2 CCS, Status: Unknown, Count:1}",True
1611402.0459,6146926.6181,72,Houhora,ChargeNet NZ,ChargeNet NZ,"4126 Far N Rd, Pukenui 0484, New Zealand",True,1,False,Unlimited,False,-34.819858,173.124679,DC,2018/10/26 00:00:00+00,2,"{DC, 25 kW, Type 2 CCS, Status: Operative, Count:1},{DC, 25 kW, CHAdeMO, Status: Operative, Count:1}",True
1646479.9852,6127718.2049,73,Coopers Beach,ChargeNet NZ,ChargeNet NZ,"9 Coopers Dr, Coopers Beach 0420, NZ",True,1,False,Unlimited,False,-34.992067,173.509309,DC,2018/11/22 00:00:00+00,2,"{DC, 50 kW, Type 2 CCS, Status: Operative, Count:1},{DC, 50 kW, CHAdeMO, Status: Operative, Count:1}",True
1623738.1724,6116066.3155,74,Kaitaia,ChargeNet NZ,The Warehouse Ltd,"2 North Park Drv, Kaitaia 0410, NZ",True,1,False,Unlimited,False,-35.097925,173.26045,DC,2021/04/08 00:00:00+00,2,"{DC, 25 kW, Type 2 CCS, Status: Operative, Count:1},{DC, 25 kW, CHAdeMO, Status: Operative, Count:1}",False
1623634.3158,6115944.3755,75,Kaitaia,ChargeNet NZ,ChargeNet NZ,"111 North Rd, Kaitaia 0482, NZ",True,1,False,Unlimited,False,-35.099027,173.259314,DC,2019/01/08 00:00:00+00,2,"{DC, 50 kW, Type 2 CCS, Status: Operative, Count:1},{DC, 50 kW, CHAdeMO, Status: Operative, Count:1}",True
1624499.012,6113826.6778,76,Kaitaia,ChargeNet NZ,ChargeNet NZ,"Corner of SH 1 and Mathews Ave, Kaitaia 0410, New Zealand",True,1,False,Unlimited,False,-35.118102,173.268864,DC,2018/03/08 00:00:00+00,2,"{DC, 50 kW, Type 2 CCS, Status: Operative, Count:1},{DC, 50 kW, CHAdeMO, Status: Operative, Count:1}",True
1683581.5113,6103244.1972,77,Waipapa,ChargeNet NZ,ChargeNet NZ,"37 Klinac Laned, Waipapa 0295, NZ",True,1,False,Unlimited,False,-35.210342,173.918288,DC,2019/01/16 00:00:00+00,2,"{DC, 50 kW, Type 2 CCS, Status: Operative, Count:1},{DC, 50 kW, CHAdeMO, Status: Operative, Count:1}",True
1683673.9054,6103214.616,78,Waipapa,ChargeNet NZ,The Warehouse Ltd,"8 Kilnac Ln, Waipapa 0295, NZ",True,1,False,Unlimited,False,-35.210601,173.919306,DC,2021/04/08 00:00:00+00,2,"{DC, 25 kW, Type 2 CCS, Status: Operative, Count:1},{DC, 25 kW, CHAdeMO, Status: Operative, Count:1}",False
1686159.4689,6101152.098,79,Kerikeri,ChargeNet NZ,ChargeNet NZ,"3 Butler Road, Kerikeri 0230, New Zealand",True,1,False,Unlimited,False,-35.228986,173.946827,DC,2018/02/15 00:00:00+00,2,"{DC, 50 kW, Type 2 CCS, Status: Operative, Count:1},{DC, 50 kW, CHAdeMO, Status: Operative, Count:1}",True
1699158.0584,6095039.1865,80,Paihia,ChargeNet NZ,Job Complete Ltd,"16 Williams Road, Paihia, NZ",True,1,True,Unlimited,False,-35.282895,174.090388,DC,2021/09/14 00:00:00+00,2,"{DC, 25 kW, Type 2 CCS, Status: Operative, Count:1},{DC, 25 kW, CHAdeMO, Status: Operative, Count:1}",True
1696780.997,6084315.2718,81,Kawakawa,ChargeNet NZ,ChargeNet NZ,"4 State Highway 1, Kawakawa 0210, New Zealand",True,1,False,Unlimited,False,-35.379808,174.065521,DC,2016/02/06 00:00:00+00,2,"{DC, 50 kW, CHAdeMO, Status: Operative, Count:1},{DC, 50 kW, Type 2 CCS, Status: Operative, Count:1}",True
1672688.3816,6081437.8187,82,Kaikohe,ChargeNet NZ,ChargeNet NZ,"14-18 Marino Place, Kaikohe 0405, NZ",True,1,False,Unlimited,False,-35.407799,173.800554,DC,2018/03/23 00:00:00+00,2,"{DC, 25 kW, Type 2 CCS, Status: Operative, Count:1},{DC, 25 kW, CHAdeMO, Status: Operative, Count:1}",True
1635471.6597,6070876.152,83,Opononi,ChargeNet NZ,ChargeNet NZ,"29 State Highway 12, Opononi 0473, NZ",True,1,False,Unlimited,False,-35.50505,173.391141,DC,2018/07/09 00:00:00+00,2,"{DC, 50 kW, Type 2 CCS, Status: Operative, Count:1},{DC, 50 kW, CHAdeMO, Status: Operative, Count:1}",True
1738183.4406,6058335.8699,84,Tutukaka,ChargeNet NZ,EV Transport Ltd,"11 Marina Road, Tutukaka 0176, New Zealand",True,1,True,Unlimited,False,-35.609095,174.525645,DC,2022/01/24 00:00:00+00,2,"{DC, 25 kW, Type 2 CCS, Status: Operative, Count:1},{DC, 25 kW, CHAdeMO, Status: Operative, Count:1}",True
1719598.1466,6050274.6082,85,Tikipunga,ChargeNet NZ,ChargeNet NZ,"4 Wanaka Street, Whangarei 0112, New Zealand",True,1,False,Unlimited,False,-35.684183,174.321699,DC,2016/02/05 00:00:00+00,2,"{DC, 50 kW, Type 2 CCS, Status: Operative, Count:1},{DC, 50 kW, CHAdeMO, Status: Operative, Count:1}",True
1719181.2764,6046021.5001,86,Alexander St,ChargeNet NZ,ChargeNet NZ,"11 Alexander Street, Whangarei 0110, New Zealand",True,1,False,Unlimited,False,-35.722571,174.317724,DC,2016/02/23 00:00:00+00,2,"{DC, 50 kW, Type 2 CCS, Status: Operative, Count:1},{DC, 50 kW, CHAdeMO, Status: Operative, Count:1}",True
1719949.3854,6045717.2726,87,Whangarei Waterfront,ChargeNet NZ,EV Transport Ltd,"Whangarei Waterfront, Whangarei 0110, New Zealand",True,1,True,Unlimited,False,-35.72522,174.32626,DC,2022/06/13 00:00:00+00,2,"{DC, 25 kW, Type 2 CCS, Status: Operative, Count:1},{DC, 25 kW, CHAdeMO, Status: Operative, Count:1}",True
1719868.942,6045642.0335,88,Whangarei,ChargeNet NZ,ChargeNet NZ,"88 Dent St, Whangarei 0110, NZ",True,1,True,Unlimited,False,-35.725908,174.325382,DC,2021/05/05 00:00:00+00,2,"{DC, 50 kW, Type 2 CCS, Status: Operative, Count:1},{DC, 50 kW, CHAdeMO, Status: Operative, Count:1}",True
1720363.8257,6045005.7517,89,Whangarei,ChargeNet NZ,The Warehouse Ltd,"42 Port Rd, Whangarei 0110, NZ",True,1,False,Unlimited,False,-35.731583,174.330948,DC,2021/03/09 00:00:00+00,4,"{DC, 25 kW, CHAdeMO, Status: Operative, Count:2},{DC, 25 kW, Type 2 CCS, Status: Inoperative, Count:1},{DC, 25 kW, Type 2 CCS, Status: Operative, Count:1}",False
1718310.5517,6042896.3584,90,Raumanga,ChargeNet NZ,ChargeNet NZ,"130 Tauroa St, Whangarei 0110, New Zealand",True,1,False,Unlimited,False,-35.750846,174.30856,DC,2017/04/05 00:00:00+00,2,"{DC, 50 kW, Type 2 CCS, Status: Operative, Count:1},{DC, 50 kW, CHAdeMO, Status: Inoperative, Count:1}",True
1678662.4506,6022323.3761,91,Dargaville,ChargeNet NZ,ChargeNet NZ,"113 Totara Street, Dargaville 0310, New Zealand",True,1,False,Unlimited,False,-35.940285,173.872122,DC,2015/12/01 00:00:00+00,2,"{DC, 50 kW, Type 2 CCS, Status: Operative, Count:1},{DC, 50 kW, CHAdeMO, Status: Operative, Count:1}",True
1730253.9795,6016845.429,92,Waipu,ChargeNet NZ,ChargeNet NZ,"36 The Centre, Waipu 0510, New Zealand",True,1,False,Unlimited,False,-35.984141,174.44488,DC,2021/10/21 00:00:00+00,2,"{DC, 50 kW, Type 2 CCS, Status: Operative, Count:1},{DC, 50 kW, CHAdeMO, Status: Operative, Count:1}",True
1741736.1035,6001060.5737,93,Mangawhai,ChargeNet NZ,EV Transport Ltd,"6 Molesworth Drive, Mangawhai 0505, New Zealand",True,1,True,Unlimited,False,-36.1248,174.57504,DC,2022/02/01 00:00:00+00,2,"{DC, 25 kW, Type 2 CCS, Status: Operative, Count:1},{DC, 25 kW, CHAdeMO, Status: Operative, Count:1}",True
1729873.9931,5997233.3244,94,Kaiwaka,ChargeNet NZ,ChargeNet NZ,"1 Kaiwaka-Mangawhai Rd, Kaiwaka 0542, New Zealand",True,1,False,Unlimited,False,-36.160955,174.443894,DC,2015/10/29 00:00:00+00,2,"{DC, 50 kW, Type 2 CCS, Status: Operative, Count:1},{DC, 50 kW, CHAdeMO, Status: Operative, Count:1}",True
1729840.6218,5996907.1752,95,Kaiwaka HPC ,ChargeNet NZ,ChargeNet NZ,"1938 State Highway 1, Kaiwaka 0573, New Zealand",True,1,False,Unlimited,False,-36.163899,174.443577,DC,2021/12/18 00:00:00+00,6,"{DC, 300 kW, Type 2 CCS, Status: Operative, Count:4},{DC, 50 kW, CHAdeMO, Status: Operative, Count:2}",True
1749437.8841,5970478.2727,96,Warkworth,ChargeNet NZ,ChargeNet NZ,"19 Percy Street, Warkworth 0910, New Zealand",True,1,False,Unlimited,False,-36.399244,174.66644,DC,2017/04/09 00:00:00+00,2,"{DC, 50 kW, Type 2 CCS, Status: Operative, Count:1},{DC, 50 kW, CHAdeMO, Status: Operative, Count:1}",True
1751615.4132,5949662.6104,97,Orewa,ChargeNet NZ,ChargeNet NZ,"11 Moana Ave, Orewa 0931, NZ",True,1,False,Unlimited,False,-36.586478,174.694796,DC,2018/03/26 00:00:00+00,2,"{DC, 50 kW, Type 2 CCS, Status: Operative, Count:1},{DC, 50 kW, CHAdeMO, Status: Operative, Count:1}",True
1752205.8204,5933690.6084,98,Albany,ChargeNet NZ,ChargeNet NZ,"186 Don Mckinnon Dr, Auckland 0632, New Zealand",True,1,False,Unlimited,False,-36.730307,174.704564,DC,2015/11/06 00:00:00+00,2,"{DC, 50 kW, Type 2 CCS, Status: Operative, Count:1},{DC, 50 kW, CHAdeMO, Status: Operative, Count:1}",True
1823047.0986,5928949.7216,99,Coromandel,ChargeNet NZ,ChargeNet NZ,"155 Wharf Rd, Coromandel 3506, New Zealand",True,1,False,Unlimited,False,-36.759005,175.49873,DC,2017/11/02 00:00:00+00,2,"{DC, 50 kW, Type 2 CCS, Status: Operative, Count:1},{DC, 50 kW, CHAdeMO, Status: Operative, Count:1}",True
1755815.1801,5928282.4627,100,Continental Cars,ChargeNet NZ,Continental Cars,"45 - 65 Wairau Road, Auckland 0627, New Zealand",True,1,False,Unlimited,False,-36.778452,174.746073,DC,2020/01/20 00:00:00+00,2,"{DC, 50 kW, Type 2 CCS, Status: Operative, Count:1},{DC, 50 kW, CHAdeMO, Status: Operative, Count:1}",True
1746816.3733,5926190.4957,101,Hobsonville,ChargeNet NZ,ChargeNet NZ,"120 Hobsonville Rd, Auckland 0618, New Zealand",True,1,False,Unlimited,False,-36.79874,174.645674,DC,2020/12/12 00:00:00+00,4,"{DC, 50 kW, CHAdeMO, Status: Operative, Count:1},{DC, 50 kW, Type 2 CCS, Status: Operative, Count:1},{DC, 25 kW, CHAdeMO, Status: Operative, Count:1},{DC, 25 kW, Type 2 CCS, Status: Operative, Count:1}",True
1752766.7197,5924657.3793,102,Birkenhead,ChargeNet NZ,ChargeNet NZ,"180 Mokoia Rd, Auckland 0626, New Zealand",True,1,False,Unlimited,False,-36.811613,174.712653,DC,2020/10/23 00:00:00+00,2,"{DC, 50 kW, Type 2 CCS, Status: Inoperative, Count:1},{DC, 50 kW, CHAdeMO, Status: Inoperative, Count:1}",True
1743448.9952,5923906.796,103,Westgate,ChargeNet NZ,ChargeNet NZ,"Tawhia Dr, Auckland 0814, New Zealand",True,1,False,Unlimited,False,-36.819835,174.608373,DC,2021/05/26 00:00:00+00,2,"{DC, 50 kW, Type 2 CCS, Status: Operative, Count:1},{DC, 50 kW, CHAdeMO, Status: Operative, Count:1}",True
1760214.4484,5922475.4681,104,Devonport,ChargeNet NZ,ChargeNet NZ,"Clarence St, Auckland 0624, New Zealand",True,1,False,Unlimited,False,-36.830041,174.796572,DC,2021/04/07 00:00:00+00,2,"{DC, 50 kW, Type 2 CCS, Status: Operative, Count:1},{DC, 50 kW, CHAdeMO, Status: Operative, Count:1}",True
1841116.7641,5920071.0474,105,Whitianga,ChargeNet NZ,ChargeNet NZ,"4 Lee St, Whitianga 3510, New Zealand",True,1,False,Unlimited,False,-36.834533,175.703773,DC,2017/11/02 00:00:00+00,2,"{DC, 50 kW, Type 2 CCS, Status: Operative, Count:1},{DC, 50 kW, CHAdeMO, Status: Inoperative, Count:1}",True
1757291.3687,5920992.9247,106,Downtown Carpark,ChargeNet NZ,ChargeNet NZ,"31 Customs Street West, Auckland 1010, NZ",False,1,True,Unlimited,False,-36.84389,174.764115,AC,2018/04/28 00:00:00+00,6,"{AC, 7 kW, Type 2 Socketed, Status: Operative, Count:4},{AC, 7 kW, Type 2 Socketed, Status: Unknown, Count:2}",False
1756887.0471,5920776.197,107,Fanshawe St Carpark,ChargeNet NZ,ChargeNet NZ,"72-100 Fanshawe St, Auckland 1010, NZ",False,1,True,Unlimited,False,-36.84591,174.759627,AC,2019/02/25 00:00:00+00,6,"{AC, 7 kW, Type 2 Socketed, Status: Operative, Count:6}",False
1755417.7704,5920506.0391,108,Pompallier Tce,ChargeNet NZ,ChargeNet NZ,"2 Pompallier Terrace, Auckland 1011, NZ",True,1,True,Unlimited,False,-36.848587,174.74321,AC,2018/12/16 00:00:00+00,3,"{AC, 7 kW, Type 2 Socketed, Status: Operative, Count:2},{AC, 7 kW, Type 2 Socketed, Status: Inoperative, Count:1}",False
1757530.5631,5920416.9398,109,Victoria St Car Park,ChargeNet NZ,ChargeNet NZ,"30 Kitchener Street, Auckland 1010, NZ",False,1,True,Unlimited,False,-36.84904,174.766916,AC,2018/04/28 00:00:00+00,3,"{AC, 7 kW, Type 2 Socketed, Status: Operative, Count:3}",False
1757120.4996,5919994.3456,110,Civic Car Park,ChargeNet NZ,ChargeNet NZ,"Greys Ave & Mayoral Drive, Auckland 1010, NZ",False,1,True,Unlimited,False,-36.852916,174.762406,AC,2018/04/28 00:00:00+00,6,"{AC, 7 kW, Type 2 Socketed, Status: Operative, Count:5},{AC, 7 kW, Type 2 Socketed, Status: Inoperative, Count:1}",False
1745282.4012,5919685.6553,111,Lincoln Road,ChargeNet NZ,ChargeNet NZ,"202-224 Lincoln Rd, Auckland 0610, New Zealand",True,1,False,Unlimited,False,-36.857592,174.629729,DC,2022/03/28 00:00:00+00,2,"{DC, 50 kW, Type 2 CCS, Status: Operative, Count:1},{DC, 50 kW, CHAdeMO, Status: Operative, Count:1}",True
1762983.5055,5919011.1017,112,Eastridge,ChargeNet NZ,ChargeNet NZ,"209 Kepa Rd, Mission Bay 1070, New Zealand",True,1,False,Unlimited,False,-36.860782,174.828352,DC,2020/03/26 00:00:00+00,2,"{DC, 50 kW, Type 2 CCS, Status: Operative, Count:1},{DC, 50 kW, CHAdeMO, Status: Operative, Count:1}",True
1755936.8253,5918930.477,113,Grey Lynn,ChargeNet NZ,Quattro Motors Ltd,"150 Great North Rd, Auckland 1245, NZ",True,1,True,Unlimited,False,-36.862698,174.749353,Mixed,2020/10/12 00:00:00+00,5,"{DC, 175 kW, Type 2 CCS, Status: Operative, Count:1},{DC, 50 kW, CHAdeMO, Status: Operative, Count:1},{DC, 175 kW, CHAdeMO, Status: Operative, Count:1},{AC, 22 kW, Type 2 Socketed, Status: Operative, Count:1},{DC, 50 kW, Type 1 CCS, Status: Operative, Count:1}",True
1756965.652,5918668.4005,114,Symonds St,ChargeNet NZ,ChargeNet NZ,"226-228 Symonds St, Auckland 1010, NZ",True,1,True,Unlimited,False,-36.864889,174.760944,AC,2019/06/14 00:00:00+00,6,"{AC, 7 kW, Type 2 Socketed, Status: Operative, Count:4},{AC, 7 kW, Type 2 Socketed, Status: Inoperative, Count:2}",False
1765139.4398,5914840.7467,115,Pilkington Rd,ChargeNet NZ,ChargeNet NZ,"28-30 Pilkington Rd, Auckland 1072, NZ",True,1,True,Unlimited,False,-36.897982,174.853434,AC,2019/01/14 00:00:00+00,6,"{AC, 7 kW, Type 2 Socketed, Status: Operative, Count:5},{AC, 7 kW, Type 2 Socketed, Status: Inoperative, Count:1}",False
1754601.3241,5913895.0552,116,Mt Roskill,ChargeNet NZ,ChargeNet NZ,"53 May Rd, Auckland 1041, New Zealand",True,1,False,Unlimited,False,-36.908289,174.735404,DC,2019/11/21 00:00:00+00,2,"{DC, 50 kW, Type 2 CCS, Status: Operative, Count:1},{DC, 50 kW, CHAdeMO, Status: Operative, Count:1}",True
1749927.9525,5913855.5028,117,McCrae Way Carpark,ChargeNet NZ,ChargeNet NZ,"McCrae Way, Auckland 0600, NZ",False,1,True,Unlimited,False,-36.9094,174.682974,AC,2018/09/13 00:00:00+00,6,"{AC, 7 kW, Type 2 Socketed, Status: Operative, Count:5},{AC, 7 kW, Type 2 Socketed, Status: Inoperative, Count:1}",False
1750178.4993,5913796.6981,118,New Lynn,ChargeNet NZ,ChargeNet NZ,"2/6 Crown Lynn Place, Auckland 0600, New Zealand",True,1,False,Unlimited,False,-36.90989,174.685797,DC,2021/02/04 00:00:00+00,2,"{DC, 50 kW, Type 2 CCS, Status: Operative, Count:1},{DC, 50 kW, CHAdeMO, Status: Operative, Count:1}",True
1766942.9874,5910384.7333,119,Highbrook,ChargeNet NZ,Goodman Property Services (NZ) Ltd,"Wilson Carpark - 60 Highbrook drive, Auckland 2013, New Zealand",True,1,True,Unlimited,False,-36.937812,174.874649,DC,2022/05/18 00:00:00+00,2,"{DC, 150 kW, Type 2 CCS, Status: Operative, Count:2}",True
1767239.4884,5904797.7555,120,Manukau,ChargeNet NZ,ChargeNet NZ,"6 Cavendish Drive, Auckland 2104, New Zealand",True,1,False,Unlimited,False,-36.988096,174.879214,DC,2019/07/24 00:00:00+00,2,"{DC, 50 kW, Type 2 CCS, Status: Operative, Count:1},{DC, 50 kW, CHAdeMO, Status: Operative, Count:1}",True
1767128.7517,5904523.7906,121,Ronwood Ave Carpark,ChargeNet NZ,ChargeNet NZ,"Cnr Ronwood and Davies Ave, Auckland 2104, NZ",False,1,True,Unlimited,False,-36.990584,174.878031,AC,2018/06/17 00:00:00+00,6,"{AC, 7 kW, Type 2 Socketed, Status: Operative, Count:5},{AC, 7 kW, Type 2 Socketed, Status: Inoperative, Count:1}",False
1766086.3462,5904047.6021,122,Amble + Birch Café,ChargeNet NZ,Goodman Property Services (NZ) Ltd,"Amble & Birch - 88 Plunket Avenue, Auckland 2104, New Zealand",True,1,True,Unlimited,False,-36.995059,174.866428,DC,2022/03/02 00:00:00+00,2,"{DC, 150 kW, Type 2 CCS, Status: Operative, Count:2}",True
1853626.6596,5901241.1961,123,Tairua,ChargeNet NZ,ChargeNet NZ,"6 Tokoroa Rd, Tairua 3508, New Zealand",True,1,False,Unlimited,False,-37.000794,175.850207,DC,2017/05/04 00:00:00+00,2,"{DC, 50 kW, Type 2 CCS, Status: Operative, Count:1},{DC, 50 kW, CHAdeMO, Status: Operative, Count:1}",True
1771773.0754,5897460.0634,124,Takanini,ChargeNet NZ,ChargeNet NZ,"345 Great South Rd, Takanini 2112, NZ",True,1,False,Unlimited,False,-37.053386,174.931804,DC,2018/06/14 00:00:00+00,2,"{DC, 25 kW, Type 2 CCS, Status: Operative, Count:1},{DC, 25 kW, CHAdeMO, Status: Operative, Count:1}",True
1825883.7929,5886662.1064,125,Thames,ChargeNet NZ,ChargeNet NZ,"505 Mackay Street, Thames 3500, New Zealand",True,1,False,Unlimited,False,-37.139161,175.543117,DC,2016/09/01 00:00:00+00,2,"{DC, 50 kW, Type 2 CCS, Status: Operative, Count:1},{DC, 50 kW, CHAdeMO, Status: Operative, Count:1}",True
1776059.2802,5881902.9392,126,Bombay HPC,ChargeNet NZ,ChargeNet NZ,"Mill Rd, Bombay 1010, NZ",True,1,False,Unlimited,False,-37.192743,174.983637,DC,2020/08/07 00:00:00+00,6,"{DC, 300 kW, Type 2 CCS, Status: Operative, Count:4},{DC, 50 kW, CHAdeMO, Status: Operative, Count:2}",True
1855049.7515,5878663.2333,127,Whangamata,ChargeNet NZ,ChargeNet NZ,"100 Hetherington Rd, Whangamata 3620, New Zealand",True,1,False,Unlimited,False,-37.203677,175.873856,DC,2017/12/12 00:00:00+00,2,"{DC, 50 kW, Type 2 CCS, Status: Operative, Count:1},{DC, 50 kW, CHAdeMO, Status: Operative, Count:1}",True
1851323.8497,5857722.9739,128,Waihi,ChargeNet NZ,ChargeNet NZ,"35 Kenny Street, Waihi 3610, NZ",True,1,False,Unlimited,False,-37.393211,175.839003,DC,2018/03/30 00:00:00+00,2,"{DC, 50 kW, Type 2 CCS, Status: Operative, Count:1},{DC, 50 kW, CHAdeMO, Status: Operative, Count:1}",True
2073918.2157,5821233.7978,129,Te Araroa,ChargeNet NZ,Eastland Energy Solutions Limited,"20 Rata St, Te Araroa 4082, New Zealand",True,1,False,Unlimited,False,-37.63379,178.369254,DC,2018/06/06 00:00:00+00,2,"{DC, 25 kW, Type 2 CCS, Status: Operative, Count:1},{DC, 25 kW, CHAdeMO, Status: Operative, Count:1}",True
1822460.7606,5828912.5921,130,Morrinsville,ChargeNet NZ,ChargeNet NZ,"79/89-97 Thames St, Morrinsville 3300, NZ",True,1,False,Unlimited,False,-37.660023,175.521991,DC,2018/10/09 00:00:00+00,2,"{DC, 50 kW, Type 2 CCS, Status: Operative, Count:1},{DC, 50 kW, CHAdeMO, Status: Operative, Count:1}",True
1882001.3663,5826526.9726,131,Farmer Autovillage,ChargeNet NZ,Farmer Autovillage,"44 Maru Street, Mount Maunganui 3116, New Zealand",True,1,True,Unlimited,False,-37.66514,176.19705,DC,2021/11/03 00:00:00+00,2,"{DC, 175 kW, CHAdeMO, Status: Operative, Count:1},{DC, 175 kW, Type 2 CCS, Status: Operative, Count:1}",True
1884370.4046,5825351.6644,132,Bayfair,ChargeNet NZ,ChargeNet NZ,"19 Girven Road, Tauranga 3116, New Zealand",True,1,False,Unlimited,False,-37.674986,176.224327,DC,2016/03/03 00:00:00+00,2,"{DC, 50 kW, Type 2 CCS, Status: Operative, Count:1},{DC, 50 kW, CHAdeMO, Status: Operative, Count:1}",True
1879310.0036,5824231.3974,133,Tauranga CBD,ChargeNet NZ,Basestation,"148 Durham Street, Tauranga 3110, New Zealand",True,1,True,Unlimited,False,-37.686622,176.16746,DC,2022/06/06 00:00:00+00,2,"{DC, 30 kW, Type 2 CCS, Status: Operative, Count:1},{DC, 30 kW, CHAdeMO, Status: Operative, Count:1}",True
1878747.9289,5823250.352,134,Cameron Road,ChargeNet NZ,ChargeNet NZ,"476 Cameron Road, Tauranga 3110, New Zealand",True,1,False,Unlimited,False,-37.695622,176.16147,DC,2020/10/07 00:00:00+00,2,"{DC, 50 kW, Type 2 CCS, Status: Operative, Count:1},{DC, 50 kW, CHAdeMO, Status: Operative, Count:1}",True
2012044.2957,5812701.4519,135,Te Kaha,ChargeNet NZ,Horizon Networks,"11 Te Kaha Hotel Rd, Te Kaha 3199, NZ",True,1,False,Unlimited,False,-37.740247,177.675372,Mixed,2018/02/16 00:00:00+00,3,"{DC, 50 kW, Type 2 CCS, Status: Operative, Count:1},{DC, 50 kW, CHAdeMO, Status: Operative, Count:1},{AC, 22 kW, Type 2 Socketed, Status: Operative, Count:1}",True
1800240.2071,5816282.0247,136,Mill St,ChargeNet NZ,ChargeNet NZ,"17 Mill Street, Hamilton 3200, New Zealand",True,1,False,Unlimited,False,-37.778893,175.273749,DC,2019/04/23 00:00:00+00,2,"{DC, 50 kW, Type 2 CCS, Status: Operative, Count:1},{DC, 50 kW, CHAdeMO, Status: Operative, Count:1}",True
1893027.1829,5812989.8503,137,Te Puke,ChargeNet NZ,ChargeNet NZ,"12 Jocelyn St, Te Puke 3119, New Zealand",True,1,False,Unlimited,False,-37.783496,176.327311,DC,2020/11/30 00:00:00+00,2,"{DC, 50 kW, Type 2 CCS, Status: Operative, Count:1},{DC, 50 kW, CHAdeMO, Status: Operative, Count:1}",True
1843864.781,5812343.7673,138,Matamata,ChargeNet NZ,ChargeNet NZ,"45 Waharoa Rd, Matamata 3400, NZ",True,1,False,Unlimited,False,-37.803753,175.769951,DC,2018/12/20 00:00:00+00,2,"{DC, 50 kW, Type 2 CCS, Status: Operative, Count:1},{DC, 50 kW, CHAdeMO, Status: Operative, Count:1}",True
2067718.4945,5792884.967,139,Ruatoria,ChargeNet NZ,Eastland Energy Solutions Limited,"146 Waiomatatini Road, Ruatoria 4032, New Zealand",True,1,False,Unlimited,False,-37.891379,178.317528,DC,2020/03/04 00:00:00+00,2,"{DC, 25 kW, Type 2 CCS, Status: Inoperative, Count:1},{DC, 25 kW, CHAdeMO, Status: Inoperative, Count:1}",True
1816926.742,5803322.3274,140,Cambridge,ChargeNet NZ,ChargeNet NZ,"73 Queen St, Cambridge 3434, New Zealand",True,1,False,Unlimited,False,-37.891785,175.466957,DC,2017/05/01 00:00:00+00,2,"{DC, 50 kW, Type 2 CCS, Status: Operative, Count:1},{DC, 50 kW, CHAdeMO, Status: Operative, Count:1}",True
1951409.6632,5792202.1786,141,Whakatane,ChargeNet NZ,Horizon Networks,"31 Quay Street, Whakatane 3120, NZ",True,1,False,Unlimited,False,-37.949836,176.998989,Mixed,2018/02/15 00:00:00+00,3,"{DC, 50 kW, CHAdeMO, Status: Operative, Count:1},{DC, 50 kW, Type 2 CCS, Status: Operative, Count:1},{AC, 22 kW, Type 2 Socketed, Status: Operative, Count:1}",True
1842279.2404,5792989.8422,142,Tirau,ChargeNet NZ,ChargeNet NZ,"3 Station St, Tirau 3410, NZ",True,1,False,Unlimited,False,-37.978411,175.758459,DC,2019/08/09 00:00:00+00,4,"{DC, 50 kW, CHAdeMO, Status: Operative, Count:2},{DC, 50 kW, Type 2 CCS, Status: Operative, Count:2}",True
1793214.1638,5792827.4776,143,Pirongia,ChargeNet NZ,ChargeNet NZ,"270 Crozier St, Pirongia 3802, NZ",True,1,False,Unlimited,False,-37.991647,175.200302,DC,2018/11/01 00:00:00+00,2,"{DC, 50 kW, Type 2 CCS, Status: Operative, Count:1},{DC, 50 kW, CHAdeMO, Status: Operative, Count:1}",True
1804462.8136,5790685.2663,144,Te Awamutu,ChargeNet NZ,ChargeNet NZ,"10 Scout Lane, Te Awamutu 3800, New Zealand",True,1,False,Unlimited,False,-38.008473,175.328916,DC,2017/03/22 00:00:00+00,2,"{DC, 50 kW, Type 2 CCS, Status: Operative, Count:1},{DC, 50 kW, CHAdeMO, Status: Operative, Count:1}",True
1976090.7283,5784129.0618,145,Opotiki,ChargeNet NZ,Horizon Networks,"70 Bridge Street, Opotiki 3122, NZ",True,1,False,Unlimited,False,-38.012522,177.283381,Mixed,2018/02/16 00:00:00+00,3,"{DC, 50 kW, Type 2 CCS, Status: Operative, Count:1},{DC, 50 kW, CHAdeMO, Status: Operative, Count:1},{AC, 22 kW, Type 2 Socketed, Status: Operative, Count:1}",True
1924681.3099,5778254.5398,146,Kawerau,ChargeNet NZ,ChargeNet NZ,"6-14 Islington Street, Kawerau 3127, New Zealand",True,1,False,Unlimited,False,-38.085223,176.701745,DC,2020/02/21 00:00:00+00,2,"{DC, 50 kW, Type 2 CCS, Status: Operative, Count:1},{DC, 50 kW, CHAdeMO, Status: Operative, Count:1}",True
2065961.2865,5766349.645,147,Tokomaru Bay,ChargeNet NZ,Eastland Energy Solutions Limited,"25 Waitangi Street, Tokomaru Bay 4079, New Zealand",True,1,False,Unlimited,False,-38.130411,178.314844,DC,2020/10/27 00:00:00+00,2,"{DC, 25 kW, Type 2 CCS, Status: Operative, Count:1},{DC, 25 kW, CHAdeMO, Status: Operative, Count:1}",True
1885089.2645,5774089.1181,148,Rotorua,ChargeNet NZ,Unison Networks Limited,"1134 Haupapa Street, Rotorua 3010, New Zealand",True,1,False,Unlimited,False,-38.136053,176.25273,DC,2016/09/28 00:00:00+00,2,"{DC, 50 kW, Type 2 CCS, Status: Operative, Count:1},{DC, 50 kW, CHAdeMO, Status: Operative, Count:1}",True
1884523.9809,5770903.6168,149,Te Puia,ChargeNet NZ,ChargeNet NZ,"Hemo Rd, Rotorua 3010, NZ",True,1,False,Unlimited,False,-38.164895,176.247562,DC,2020/03/03 00:00:00+00,2,"{DC, 50 kW, Type 2 CCS, Status: Operative, Count:1},{DC, 50 kW, CHAdeMO, Status: Operative, Count:1}",True
1851040.2444,5766106.2895,150,Tokoroa,ChargeNet NZ,ChargeNet NZ,"Bridge Street, Tokoroa 3420, NZ",True,1,False,Unlimited,False,-38.218022,175.867543,DC,2018/08/30 00:00:00+00,2,"{DC, 50 kW, Type 2 CCS, Status: Operative, Count:1},{DC, 50 kW, CHAdeMO, Status: Operative, Count:1}",True
1788978.1849,5755230.4014,151,Te Kuiti,ChargeNet NZ,The Warehouse Ltd,"Cnr Rora and Alexandra St, Te Kuiti 3910, New Zealand",True,1,False,Unlimited,False,-38.331148,175.162076,DC,2021/03/08 00:00:00+00,2,"{DC, 25 kW, Type 2 CCS, Status: Operative, Count:1},{DC, 25 kW, CHAdeMO, Status: Operative, Count:1}",False
1789062.7356,5755106.0577,152,Te Kuiti,ChargeNet NZ,ChargeNet NZ,"53 Rora St, Te Kuiti 3910, New Zealand",True,1,False,Unlimited,False,-38.33225,175.163076,DC,2017/07/13 00:00:00+00,2,"{DC, 50 kW, CHAdeMO, Status: Operative, Count:1},{DC, 50 kW, Type 2 CCS, Status: Operative, Count:1}",True
1996318.6264,5744811.844,153,Matawai,ChargeNet NZ,Eastland Energy Solutions Limited,"6522 Matawai Road, Matawai 4095, New Zealand",True,1,False,Unlimited,False,-38.357157,177.535008,Mixed,,3,"{DC, 50 kW, Type 2 CCS, Status: Operative, Count:1},{DC, 50 kW, CHAdeMO, Status: Operative, Count:1},{AC, 22 kW, Type 2 Socketed, Status: Operative, Count:1}",True
2062809.1547,5739397.7839,154,Tolaga Bay,ChargeNet NZ,Eastland Energy Solutions Limited,"Monkhouse St, Tolaga Bay 4077, New Zealand",True,1,False,Unlimited,False,-38.373898,178.296608,DC,,2,"{DC, 25 kW, Type 2 CCS, Status: Operative, Count:1},{DC, 25 kW, CHAdeMO, Status: Operative, Count:1}",True
1923266.6029,5736953.5907,155,Murupara,ChargeNet NZ,Horizon Networks,"62 Pine Drive, Murupara 3025, NZ",True,1,False,Unlimited,False,-38.457178,176.704494,Mixed,2018/04/25 00:00:00+00,3,"{DC, 50 kW, Type 2 CCS, Status: Operative, Count:1},{DC, 50 kW, CHAdeMO, Status: Operative, Count:1},{AC, 22 kW, Type 2 Socketed, Status: Operative, Count:1}",True
2037524.3935,5708088.6028,156,Gisborne,ChargeNet NZ,Eastland Energy Solutions Limited,"37 Gladstone Rd, Gisborne 4010, New Zealand",True,1,False,Unlimited,False,-38.667681,178.02786,Mixed,,3,"{DC, 50 kW, Type 2 CCS, Status: Operative, Count:1},{DC, 50 kW, CHAdeMO, Status: Operative, Count:1},{AC, 22 kW, Type 2 Socketed, Status: Operative, Count:1}",True
2037307.0111,5707698.9737,157,Gisborne,ChargeNet NZ,The Warehouse Ltd,"80 Customhouse St, Gisborne 4010, NZ",True,1,False,Unlimited,False,-38.671286,178.025616,DC,2021/03/09 00:00:00+00,2,"{DC, 25 kW, Type 2 CCS, Status: Operative, Count:1},{DC, 25 kW, CHAdeMO, Status: Operative, Count:1}",False
1867247.5123,5713243.2827,158,Drive EV,ChargeNet NZ,Drive EV Ltd,"60 Tuwharetoa St, Taupo 3330, New Zealand",True,1,False,Unlimited,False,-38.689086,176.072565,Mixed,2020/12/04 00:00:00+00,4,"{AC, 22 kW, Type 2 Socketed, Status: Operative, Count:2},{DC, 50 kW, Type 2 CCS, Status: Operative, Count:1},{DC, 50 kW, CHAdeMO, Status: Inoperative, Count:1}",True
1867227.1268,5713131.5079,159,Taupo HPC,ChargeNet NZ,ChargeNet NZ,"Roberts St, Taupo 3300, New Zealand",True,1,False,Unlimited,False,-38.690098,176.072374,DC,2021/03/25 00:00:00+00,6,"{DC, 300 kW, Type 2 CCS, Status: Operative, Count:3},{DC, 50 kW, CHAdeMO, Status: Operative, Count:1},{DC, 300 kW, Type 2 CCS, Status: Inoperative, Count:1},{DC, 50 kW, CHAdeMO, Status: Inoperative, Count:1}",True
1867529.1777,5712836.2191,160,Taupo Central,ChargeNet NZ,Unison Networks Limited,"1 Kaimanawa Street, Taupo 3330, New Zealand",True,1,False,Unlimited,False,-38.692664,176.075956,DC,2016/11/22 00:00:00+00,2,"{DC, 50 kW, Type 2 CCS, Status: Operative, Count:1},{DC, 50 kW, CHAdeMO, Status: Operative, Count:1}",True
1740812.0455,5715469.1724,161,Mokau,ChargeNet NZ,ChargeNet NZ,"Cnr SH3 and Rerenga St, Mokau 4376, New Zealand",True,1,False,Unlimited,False,-38.698202,174.619256,DC,2021/11/23 00:00:00+00,2,"{DC, 50 kW, Type 2 CCS, Status: Operative, Count:1},{DC, 50 kW, CHAdeMO, Status: Operative, Count:1}",True
1892322.3015,5691278.1635,162,Rangitaiki,ChargeNet NZ,Unison Networks Limited,"3281 State Highway 5, Iwitahi 3379, New Zealand",True,1,False,Unlimited,False,-38.878762,176.369708,Mixed,2017/07/05 00:00:00+00,3,"{DC, 50 kW, Type 2 CCS, Status: Operative, Count:1},{DC, 50 kW, CHAdeMO, Status: Operative, Count:1},{AC, 22 kW, Type 2 Socketed, Status: Operative, Count:1}",True
2015098.1265,5673768.6942,163,Morere,ChargeNet NZ,Eastland Energy Solutions Limited,"3968 State Highway 2, Gisborne 4078, New Zealand",True,1,False,Unlimited,False,-38.986666,177.791665,DC,2018/05/04 00:00:00+00,2,"{DC, 25 kW, Type 2 CCS, Status: Operative, Count:1},{DC, 25 kW, CHAdeMO, Status: Operative, Count:1}",True
1843399.7634,5680569.6337,164,Turangi,ChargeNet NZ,ChargeNet NZ,"1 Pihanga Rd, Turangi 3334, New Zealand",True,1,False,Unlimited,False,-38.990055,175.810258,DC,2017/05/08 00:00:00+00,2,"{DC, 50 kW, Type 2 CCS, Status: Operative, Count:1},{DC, 50 kW, CHAdeMO, Status: Operative, Count:1}",True
1982773.4917,5670101.7876,165,Wairoa,ChargeNet NZ,Eastland Energy Solutions Limited,"75 Queen St, Wairoa 4108, New Zealand",True,1,False,Unlimited,False,-39.034329,177.421661,Mixed,,3,"{DC, 50 kW, Type 2 CCS, Status: Operative, Count:1},{AC, 22 kW, Type 2 Socketed, Status: Operative, Count:1},{DC, 50 kW, CHAdeMO, Status: Inoperative, Count:1}",True
1693219.1108,5676239.2048,166,New Plymouth,ChargeNet NZ,ChargeNet NZ,"78 Courtenay St, New Plymouth 4310, New Zealand",True,1,False,Unlimited,False,-39.05796,174.077402,DC,2020/11/30 00:00:00+00,2,"{DC, 50 kW, Type 2 CCS, Status: Operative, Count:1},{DC, 50 kW, CHAdeMO, Status: Operative, Count:1}",True
2021705.5752,5662947.3004,167,Mahia,ChargeNet NZ,Eastland Energy Solutions Limited,"43 Moana Drive, Mahia 4198, NZ",True,1,False,Unlimited,False,-39.080674,177.874369,DC,2020/11/06 00:00:00+00,2,"{DC, 25 kW, Type 2 CCS, Status: Operative, Count:1},{DC, 25 kW, CHAdeMO, Status: Operative, Count:1}",True
1946101.4655,5660784.554,168,Putorino,ChargeNet NZ,Unison Networks Limited,"5464 State Highway 2, Putorino 4181, NZ",True,1,False,Unlimited,False,-39.133366,177.003793,Mixed,2018/06/05 00:00:00+00,3,"{DC, 50 kW, Type 2 CCS, Status: Unknown, Count:1},{DC, 50 kW, CHAdeMO, Status: Unknown, Count:1},{AC, 22 kW, Type 2 Socketed, Status: Unknown, Count:1}",True
1913160.1046,5657602.2305,169,McVicar Rd,ChargeNet NZ,Unison Networks Limited,"4237 State Highway 5, Te Haroto 4182, New Zealand",True,1,False,Unlimited,False,-39.174447,176.624938,Mixed,2017/07/05 00:00:00+00,3,"{DC, 50 kW, Type 2 CCS, Status: Operative, Count:1},{DC, 50 kW, CHAdeMO, Status: Operative, Count:1},{AC, 22 kW, Type 2 Socketed, Status: Operative, Count:1}",True
1807498.0186,5660784.5833,170,National Park,ChargeNet NZ,ChargeNet NZ,"Cnr SH4 & Waimarino Tokaanu Road, National Park 3989, NZ",True,1,False,Unlimited,False,-39.177432,175.402147,DC,2018/06/21 00:00:00+00,2,"{DC, 50 kW, Type 2 CCS, Status: Operative, Count:1},{DC, 50 kW, CHAdeMO, Status: Operative, Count:1}",True
1806608.1908,5634164.6611,171,Ohakune,ChargeNet NZ,ChargeNet NZ,"30 Ayr St, Ohakune 4625, NZ",True,1,False,Unlimited,False,-39.417303,175.400028,DC,2018/11/09 00:00:00+00,2,"{DC, 50 kW, Type 2 CCS, Status: Operative, Count:1},{DC, 50 kW, CHAdeMO, Status: Operative, Count:1}",True
1674027.852,5632450.2765,172,Opunake,ChargeNet NZ,ChargeNet NZ,"23 Napier St, Opunake 4616, NZ",True,1,False,Unlimited,False,-39.454334,173.86043,DC,2018/09/04 00:00:00+00,2,"{DC, 50 kW, Type 2 CCS, Status: Operative, Count:1},{DC, 50 kW, CHAdeMO, Status: Operative, Count:1}",True
1829609.8294,5626411.6359,173,Waiouru,ChargeNet NZ,ChargeNet NZ,"State Highway 1, Waiouru 4861, New Zealand",True,1,False,Unlimited,False,-39.48127,175.66963,DC,2017/06/05 00:00:00+00,4,"{DC, 50 kW, CHAdeMO, Status: Operative, Count:2},{DC, 50 kW, Type 2 CCS, Status: Operative, Count:2}",True
1936677.7863,5621249.018,174,Napier,ChargeNet NZ,Unison Networks Limited,"206 Dickens St, Napier 4110, New Zealand",True,1,False,Unlimited,False,-39.492478,176.914804,DC,2016/11/22 00:00:00+00,2,"{DC, 50 kW, Type 2 CCS, Status: Operative, Count:1},{DC, 50 kW, CHAdeMO, Status: Operative, Count:1}",True
1931955.3509,5617760.1393,175,Greenmeadows,ChargeNet NZ,ChargeNet NZ,"9 Gloucester St, Napier 4112, New Zealand",True,1,False,Unlimited,False,-39.525678,176.861749,DC,2019/09/03 00:00:00+00,2,"{DC, 50 kW, Type 2 CCS, Status: Operative, Count:1},{DC, 50 kW, CHAdeMO, Status: Operative, Count:1}",True
1710173.818,5616801.8629,176,Hawera,ChargeNet NZ,ChargeNet NZ,"54 Princes St, Hawera 4610, New Zealand",True,1,False,Unlimited,False,-39.591433,174.283066,DC,2018/03/22 00:00:00+00,2,"{DC, 50 kW, Type 2 CCS, Status: Operative, Count:1},{DC, 50 kW, CHAdeMO, Status: Operative, Count:1}",True
1929860.1532,5605040.5403,177,Hastings,ChargeNet NZ,Unison Networks Limited,"100 Queen St W, Hastings 4122, New Zealand",True,1,False,Unlimited,False,-39.640836,176.843748,DC,2016/09/28 00:00:00+00,2,"{DC, 50 kW, Type 2 CCS, Status: Operative, Count:1},{DC, 50 kW, CHAdeMO, Status: Operative, Count:1}",True
1840088.3015,5604402.852,178,Taihape,ChargeNet NZ,ChargeNet NZ,"12 Huia St, Taihape 4720, NZ",True,1,False,Unlimited,False,-39.676483,175.799291,DC,2018/08/27 00:00:00+00,2,"{DC, 50 kW, Type 2 CCS, Status: Operative, Count:1},{DC, 50 kW, CHAdeMO, Status: Operative, Count:1}",True
1740096.1449,5597235.6807,179,Waverley,ChargeNet NZ,ChargeNet NZ,"Chester Street, Waverley 4510, New Zealand",True,1,False,Unlimited,False,-39.763289,174.63557,DC,2019/12/19 00:00:00+00,2,"{DC, 50 kW, Type 2 CCS, Status: Operative, Count:1},{DC, 50 kW, CHAdeMO, Status: Operative, Count:1}",True
1838680.9535,5589637.6646,180,Mangaweka,ChargeNet NZ,ChargeNet NZ,"6336b Mangawharariki Road, Mangaweka 4797, New Zealand",True,1,False,Unlimited,False,-39.809757,175.788255,DC,2016/12/21 00:00:00+00,2,"{DC, 50 kW, CHAdeMO, Status: Operative, Count:1},{DC, 50 kW, Type 2 CCS, Status: Operative, Count:1}",True
1774365.0102,5578485.1245,181,Whanganui,ChargeNet NZ,ChargeNet NZ,"374 Victoria Ave, Whanganui 4500, New Zealand",True,1,False,Unlimited,False,-39.9258,175.040425,DC,2020/12/08 00:00:00+00,2,"{DC, 50 kW, Type 2 CCS, Status: Operative, Count:1},{DC, 50 kW, CHAdeMO, Status: Operative, Count:1}",True
1774322.0689,5578465.6714,182,Whanganui,ChargeNet NZ,ChargeNet NZ,"167 Glasgow St, Whanganui 4500, New Zealand",True,1,False,Unlimited,False,-39.925984,175.039928,DC,2018/07/25 00:00:00+00,2,"{DC, 50 kW, CHAdeMO, Status: Operative, Count:1},{DC, 50 kW, Type 2 CCS, Status: Inoperative, Count:1}",True
1903546.5885,5566840.2217,183,Waipukurau,ChargeNet NZ,Centralines Ltd,"34 Russell St, Waipukurau 4200, New Zealand",True,1,False,Unlimited,False,-39.994101,176.555381,DC,2016/09/28 00:00:00+00,2,"{DC, 50 kW, CHAdeMO, Status: Operative, Count:1},{DC, 50 kW, Type 2 CCS, Status: Operative, Count:1}",True
1802915.7692,5561083.1256,184,Marton,ChargeNet NZ,ChargeNet NZ,"427 Wellington Rd, Marton 4710, New Zealand",True,1,False,Unlimited,False,-40.076095,175.37971,DC,2021/01/21 00:00:00+00,2,"{DC, 50 kW, Type 2 CCS, Status: Operative, Count:1},{DC, 50 kW, CHAdeMO, Status: Operative, Count:1}",True
1803198.6643,5550149.7205,185,Bulls,ChargeNet NZ,ChargeNet NZ,"7 Criterion Street, Bulls 4818, New Zealand",True,1,False,Unlimited,False,-40.174447,175.386466,DC,2019/10/04 00:00:00+00,2,"{DC, 50 kW, Type 2 CCS, Status: Operative, Count:1},{DC, 50 kW, CHAdeMO, Status: Operative, Count:1}",True
1863740.9875,5544372.7753,186,Dannevirke,ChargeNet NZ,ChargeNet NZ,"Gordon Street Carpark, Dannevirke 4930, New Zealand",True,1,False,Unlimited,False,-40.20959,176.099002,DC,2017/12/20 00:00:00+00,2,"{DC, 50 kW, Type 2 CCS, Status: Operative, Count:1},{DC, 50 kW, CHAdeMO, Status: Operative, Count:1}",True
1818610.7525,5543756.7859,187,Feilding,ChargeNet NZ,ChargeNet NZ,"42 Aorangi St, Feilding 4702, New Zealand",True,1,False,Unlimited,False,-40.228115,175.56948,DC,2019/06/21 00:00:00+00,2,"{DC, 50 kW, Type 2 CCS, Status: Operative, Count:1},{DC, 50 kW, CHAdeMO, Status: Operative, Count:1}",True
1843421.0818,5530929.5199,188,Woodville,ChargeNet NZ,ChargeNet NZ,"iSite, Woodville 4920, New Zealand",True,1,False,Unlimited,False,-40.336698,175.865639,DC,2017/11/15 00:00:00+00,2,"{DC, 50 kW, Type 2 CCS, Status: Operative, Count:1},{DC, 50 kW, CHAdeMO, Status: Operative, Count:1}",True
1821804.1139,5529507.6436,189,Palmerston North,ChargeNet NZ,ChargeNet NZ,"The Square, Palmerston North 4410, New Zealand",True,1,False,Unlimited,False,-40.355518,175.611913,DC,2016/11/22 00:00:00+00,2,"{DC, 50 kW, Type 2 CCS, Status: Operative, Count:1},{DC, 50 kW, CHAdeMO, Status: Operative, Count:1}",True
1821837.9055,5529022.9712,190,Palmerston North,ChargeNet NZ,ChargeNet NZ,"327 Ferguson St, Palmerston North, New Zealand",True,1,False,Unlimited,False,-40.359871,175.612479,DC,2021/05/19 00:00:00+00,2,"{DC, 50 kW, Type 2 CCS, Status: Operative, Count:1},{DC, 50 kW, CHAdeMO, Status: Operative, Count:1}",True
1841035.0107,5518187.6295,191,Pahiatua,ChargeNet NZ,Tararua District Council,"2 Wakeman St, Pahiatua 4910, NZ",True,1,False,Unlimited,False,-40.452043,175.842403,DC,2021/06/16 00:00:00+00,4,"{DC, 38 kW, CHAdeMO, Status: Operative, Count:2},{DC, 38 kW, Type 2 CCS, Status: Operative, Count:2}",True
1793385.3831,5517392.6007,192,Foxton,ChargeNet NZ,ChargeNet NZ,"Clyde St, Foxton 4814, New Zealand",True,1,False,Unlimited,False,-40.47165,175.281212,DC,2019/12/09 00:00:00+00,4,"{DC, 50 kW, CHAdeMO, Status: Operative, Count:2},{DC, 50 kW, Type 2 CCS, Status: Operative, Count:2}",True
1804141.0235,5508745.8211,193,Shannon,ChargeNet NZ,ChargeNet NZ,"Plimmer Tce, Shannon 4821, NZ",True,1,False,Unlimited,False,-40.546907,175.410771,DC,2020/06/26 00:00:00+00,4,"{DC, 50 kW, CHAdeMO, Status: Operative, Count:2},{DC, 50 kW, Type 2 CCS, Status: Operative, Count:2}",True
1793197.4766,5500526.812,194,Levin,ChargeNet NZ,ChargeNet NZ,"21 Bath St, Levin 5510, NZ",True,1,False,Unlimited,False,-40.623516,175.284152,DC,2018/05/15 00:00:00+00,2,"{DC, 50 kW, Type 2 CCS, Status: Operative, Count:1},{DC, 50 kW, CHAdeMO, Status: Operative, Count:1}",True
1828612.9295,5497198.3542,195,Eketahuna,ChargeNet NZ,ChargeNet NZ,"2 Haswell Street, Eketahuna 4900, NZ",True,1,False,Unlimited,False,-40.644432,175.703665,DC,2021/12/15 00:00:00+00,2,"{DC, 50 kW, Type 2 CCS, Status: Operative, Count:1},{DC, 50 kW, CHAdeMO, Status: Operative, Count:1}",True
1781700.1149,5485256.2536,196,Otaki,ChargeNet NZ,ChargeNet NZ,"186 Waerenga Road, Otaki 5512, New Zealand",True,1,False,Unlimited,False,-40.763595,175.152736,DC,2016/11/22 00:00:00+00,2,"{DC, 50 kW, Type 2 CCS, Status: Operative, Count:1},{DC, 50 kW, CHAdeMO, Status: Operative, Count:1}",True
1770604.9289,5474667.7592,197,Waikanae,ChargeNet NZ,ChargeNet NZ,"Opposite 34 Tutere St, Waikanae 5036, NZ",True,1,False,Unlimited,False,-40.861299,175.02426,DC,2019/05/30 00:00:00+00,2,"{DC, 50 kW, Type 2 CCS, Status: Operative, Count:1},{DC, 50 kW, CHAdeMO, Status: Operative, Count:1}",True
1583661.329,5476556.3005,198,Takaka,ChargeNet NZ,Network Tasman Ltd,"16 Willow Street, Golden Bay 7110, NZ",True,1,False,Unlimited,False,-40.861889,172.806131,Mixed,2018/08/01 00:00:00+00,3,"{DC, 50 kW, CHAdeMO, Status: Operative, Count:1},{DC, 50 kW, Type 2 CCS, Status: Operative, Count:1},{AC, 43 kW, Type 2 Tethered, Status: Operative, Count:1}",True
1768628.2875,5468520.1996,199,Paraparaumu,ChargeNet NZ,ChargeNet NZ,"Rimu Rd, Paraparaumu 5032, NZ",True,1,False,Unlimited,False,-40.917054,175.002489,DC,2018/10/23 00:00:00+00,4,"{DC, 50 kW, CHAdeMO, Status: Operative, Count:2},{DC, 50 kW, Type 2 CCS, Status: Operative, Count:2}",True
1766876.5239,5468365.7269,200,Raumati,ChargeNet NZ,ChargeNet NZ,"15 Raumati Rd, Paraparaumu 5032, NZ",True,1,False,Unlimited,False,-40.918804,174.98174,DC,2019/03/14 00:00:00+00,2,"{DC, 50 kW, Type 2 CCS, Status: Operative, Count:1},{DC, 50 kW, CHAdeMO, Status: Operative, Count:1}",True
1824399.5416,5463521.8118,201,Masterton,ChargeNet NZ,ChargeNet NZ,"3 Dixon Street, Masterton 5810, New Zealand",True,1,False,Unlimited,False,-40.948637,175.665992,DC,2017/05/11 00:00:00+00,2,"{DC, 50 kW, Type 2 CCS, Status: Operative, Count:1},{DC, 50 kW, CHAdeMO, Status: Operative, Count:1}",True
1764152.9337,5460797.8958,202,Paekakariki,ChargeNet NZ,ChargeNet NZ,"7D Wellington Rd, Paekakariki 5034, NZ",True,1,False,Unlimited,False,-40.987489,174.95142,DC,2019/03/25 00:00:00+00,2,"{DC, 50 kW, Type 2 CCS, Status: Operative, Count:1},{DC, 50 kW, CHAdeMO, Status: Operative, Count:1}",True
1756958.5008,5449026.4061,203,Paremata,ChargeNet NZ,ChargeNet NZ,"93-97 Mana Esplanade, Porirua 5026, New Zealand",True,1,False,Unlimited,False,-41.094888,174.868935,DC,2019/08/08 00:00:00+00,2,"{DC, 25 kW, Type 2 CCS, Status: Operative, Count:1},{DC, 25 kW, CHAdeMO, Status: Operative, Count:1}",True
1600840.484,5448552.0482,204,Motueka,ChargeNet NZ,The Warehouse Ltd,"270 High St, Motueka 7120, NZ",True,1,False,Unlimited,False,-41.114321,173.010011,DC,2021/01/26 00:00:00+00,2,"{DC, 25 kW, Type 2 CCS, Status: Operative, Count:1},{DC, 25 kW, CHAdeMO, Status: Operative, Count:1}",False
1600926.2841,5448528.7253,205,Motueka,ChargeNet NZ,ChargeNet NZ,"271 High St, Motueka 7120, NZ",True,1,False,Unlimited,False,-41.114531,173.011033,DC,2018/09/30 00:00:00+00,2,"{DC, 50 kW, Type 2 CCS, Status: Operative, Count:1},{DC, 50 kW, CHAdeMO, Status: Operative, Count:1}",True
1795258.7595,5445669.6766,206,Featherston,ChargeNet NZ,ChargeNet NZ,"43 Fitzherbert Street, Featherston 5710, New Zealand",True,1,False,Unlimited,False,-41.116804,175.325726,DC,2016/09/05 00:00:00+00,2,"{DC, 50 kW, Type 2 CCS, Status: Operative, Count:1},{DC, 50 kW, CHAdeMO, Status: Operative, Count:1}",True
1773841.7179,5445425.5752,207,Upper Hutt,ChargeNet NZ,ChargeNet NZ,"24 Queen St, Upper Hutt 5018, New Zealand",True,1,False,Unlimited,False,-41.123868,175.070866,DC,2017/04/27 00:00:00+00,2,"{DC, 50 kW, Type 2 CCS, Status: Inoperative, Count:1},{DC, 50 kW, CHAdeMO, Status: Inoperative, Count:1}",True
1754580.8821,5444942.3558,208,Porirua,ChargeNet NZ,ChargeNet NZ,"12 Parumoana Street, Porirua 5022, New Zealand",True,1,False,Unlimited,False,-41.132114,174.841666,DC,2020/10/16 00:00:00+00,2,"{DC, 50 kW, Type 2 CCS, Status: Operative, Count:1},{DC, 50 kW, CHAdeMO, Status: Operative, Count:1}",True
1768884.2585,5442806.8696,209,Silver Stream,ChargeNet NZ,ChargeNet NZ,"28 Whitemans Rd, Upper Hutt 5019, New Zealand",True,1,False,Unlimited,False,-41.148489,175.012567,DC,2019/08/07 00:00:00+00,2,"{DC, 25 kW, Type 2 CCS, Status: Operative, Count:1},{DC, 25 kW, CHAdeMO, Status: Operative, Count:1}",True
1751641.5964,5437150.6401,210,Churton Park,ChargeNet NZ,ChargeNet NZ,"69 Lakewood Ave, Wellington 6037, New Zealand",True,1,False,Unlimited,False,-41.202821,174.808593,DC,2019/07/24 00:00:00+00,2,"{DC, 25 kW, Type 2 CCS, Status: Operative, Count:1},{DC, 25 kW, CHAdeMO, Status: Operative, Count:1}",True
1759653.3042,5436026.4552,211,Lower Hutt,ChargeNet NZ,ChargeNet NZ,"1 Stevens Grove, Lower Hutt 5010, New Zealand",True,1,False,Unlimited,False,-41.211402,174.904391,DC,2016/08/25 00:00:00+00,4,"{DC, 50 kW, Type 2 CCS, Status: Operative, Count:1},{DC, 25 kW, CHAdeMO, Status: Operative, Count:1},{DC, 25 kW, Type 2 CCS, Status: Operative, Count:1},{DC, 50 kW, CHAdeMO, Status: Inoperative, Count:1}",True
1751224.6667,5434922.4866,212,Johnsonville,ChargeNet NZ,ChargeNet NZ,"Wanaka St, Wellington 6037, New Zealand",True,1,False,Unlimited,False,-41.22296,174.804174,DC,2020/12/01 00:00:00+00,8,"{DC, 25 kW, CHAdeMO, Status: Operative, Count:4},{DC, 25 kW, Type 2 CCS, Status: Operative, Count:4}",True
1756987.1624,5434706.3997,213,Petone,ChargeNet NZ,ChargeNet NZ,"114-124 Jackson St, Lower Hutt 5012, New Zealand",True,1,False,Unlimited,False,-41.223808,174.872944,DC,2019/08/28 00:00:00+00,4,"{DC, 25 kW, CHAdeMO, Status: Operative, Count:2},{DC, 25 kW, Type 2 CCS, Status: Operative, Count:2}",True
1526982.6122,5432965.4757,214,Karamea,ChargeNet NZ,ChargeNet NZ,"103 Bridge Street, Karamea 7893, NZ",True,1,False,Unlimited,False,-41.251426,172.128479,DC,2019/01/11 00:00:00+00,2,"{DC, 25 kW, Type 2 CCS, Status: Operative, Count:1},{DC, 25 kW, CHAdeMO, Status: Operative, Count:1}",True
1623852.9116,5431219.8021,215,Nelson,ChargeNet NZ,Network Tasman Ltd,"81 Trafalgar Street, Nelson 7010, NZ",True,1,False,Unlimited,False,-41.270097,173.284786,Mixed,2018/08/01 00:00:00+00,3,"{DC, 50 kW, CHAdeMO, Status: Operative, Count:1},{DC, 50 kW, Type 2 CCS, Status: Operative, Count:1},{AC, 43 kW, Type 2 Tethered, Status: Operative, Count:1}",True
1623226.5542,5430586.1507,216,Nelson,ChargeNet NZ,ChargeNet NZ,"75 Vanguard St, Nelson 7010, NZ",True,1,False,Unlimited,False,-41.275823,173.277332,DC,2018/08/14 00:00:00+00,2,"{DC, 50 kW, Type 2 CCS, Status: Operative, Count:1},{DC, 50 kW, CHAdeMO, Status: Operative, Count:1}",True
1664223.3548,5430106.6634,217,Havelock,ChargeNet NZ,ChargeNet NZ,"68 Main Rd, Havelock 7100, NZ",True,1,False,Unlimited,False,-41.277922,173.766868,DC,2018/05/31 00:00:00+00,2,"{DC, 50 kW, Type 2 CCS, Status: Operative, Count:1},{DC, 50 kW, CHAdeMO, Status: Operative, Count:1}",True
1747166.607,5428848.2797,218,Rodney St,ChargeNet NZ,ChargeNet NZ,"Rodney St, Wellington 6012, NZ",True,1,False,Unlimited,False,-41.278398,174.757247,AC,2019/10/04 00:00:00+00,2,"{AC, 7 kW, Type 2 Socketed, Status: Operative, Count:2}",True
1745553.5785,5428279.6582,219,Karori,ChargeNet NZ,ChargeNet NZ,"236 Karori Rd, Wellington 6012, New Zealand",True,1,False,Unlimited,False,-41.28381,174.738131,DC,2019/09/06 00:00:00+00,2,"{DC, 25 kW, Type 2 CCS, Status: Operative, Count:1},{DC, 25 kW, CHAdeMO, Status: Operative, Count:1}",True
1748732.8369,5428127.6757,220,Grey Street,ChargeNet NZ,Contact Energy Ltd,"Grey Street, Wellington 6011, NZ",True,1,False,Unlimited,False,-41.284599,174.776116,DC,2018/08/28 00:00:00+00,2,"{DC, 50 kW, Type 2 CCS, Status: Operative, Count:1},{DC, 50 kW, CHAdeMO, Status: Operative, Count:1}",True
1748728.9926,5427571.301,221,Bond St,ChargeNet NZ,ChargeNet NZ,"25 Bond St, Wellington 6011, NZ",True,1,False,Unlimited,False,-41.289609,174.776206,AC,2019/02/20 00:00:00+00,2,"{AC, 22 kW, Type 2 Socketed, Status: Operative, Count:2}",False
1749281.8741,5427358.2652,222,Barnett St Carpark,ChargeNet NZ,Contact Energy Ltd,"Barnett Street, Wellington 6011, New Zealand",True,1,False,Unlimited,False,-41.291425,174.782858,DC,2018/08/27 00:00:00+00,2,"{DC, 50 kW, CHAdeMO, Status: Operative, Count:1},{DC, 50 kW, Type 2 CCS, Status: Inoperative, Count:1}",True
1748915.6438,5427224.0547,223,Inglewood Pl,ChargeNet NZ,ChargeNet NZ,"Inglewood Place, Wellington 6011, NZ",True,1,False,Unlimited,False,-41.292701,174.778519,DC,2018/08/28 00:00:00+00,2,"{DC, 50 kW, Type 2 CCS, Status: Inoperative, Count:1},{DC, 50 kW, CHAdeMO, Status: Inoperative, Count:1}",True
1747246.0196,5427007.0619,224,Holloway Rd,ChargeNet NZ,ChargeNet NZ,"Holloway Rd, Wellington 6021, NZ",True,1,False,Unlimited,False,-41.294961,174.75864,AC,2019/11/12 00:00:00+00,2,"{AC, 7 kW, Type 2 Socketed, Status: Operative, Count:2}",True
1747822.965,5426762.6611,225,Epuni St,ChargeNet NZ,ChargeNet NZ,"Epuni St, Wellington 6021, NZ",True,1,False,Unlimited,False,-41.297056,174.765587,AC,2019/09/26 00:00:00+00,2,"{AC, 7 kW, Type 2 Socketed, Status: Operative, Count:2}",True
1749603.4405,5426530.8508,226,Austin St,ChargeNet NZ,ChargeNet NZ,"Austin St, Wellington 6011, NZ",True,1,False,Unlimited,False,-41.298815,174.7869,AC,2019/09/26 00:00:00+00,2,"{AC, 7 kW, Type 2 Socketed, Status: Operative, Count:2}",True
1747319.8153,5426292.2893,227,Karepa St,ChargeNet NZ,ChargeNet NZ,"Karepa St, Wellington 6021, NZ",True,1,False,Unlimited,False,-41.301383,174.759694,AC,2019/11/20 00:00:00+00,2,"{AC, 7 kW, Type 2 Socketed, Status: Operative, Count:2}",True
1752710.7587,5426075.4563,228,Miramar North Rd,ChargeNet NZ,ChargeNet NZ,"Miramar North Rd, Wellington 6022, NZ",True,1,False,Unlimited,False,-41.302333,174.824111,AC,2019/11/18 00:00:00+00,2,"{AC, 7 kW, Type 2 Socketed, Status: Operative, Count:2}",True
1748502.1996,5425627.6842,229,Wright St,ChargeNet NZ,ChargeNet NZ,"Wright St, Wellington 6021, NZ",True,1,False,Unlimited,False,-41.30715,174.773973,AC,2019/09/26 00:00:00+00,2,"{AC, 7 kW, Type 2 Socketed, Status: Operative, Count:2}",True
1749444.4361,5425409.9897,230,North Coromandel St,ChargeNet NZ,ChargeNet NZ,"9 Coromandel St, Wellington 6021, NZ",True,1,False,Unlimited,False,-41.308936,174.785277,AC,2019/09/26 00:00:00+00,2,"{AC, 7 kW, Type 2 Socketed, Status: Operative, Count:2}",True
1748793.483,5425239.3127,231,Hall St,ChargeNet NZ,ChargeNet NZ,"Hall St, Wellington 6011, NZ",True,1,False,Unlimited,False,-41.310593,174.777546,AC,2019/09/26 00:00:00+00,2,"{AC, 7 kW, Type 2 Socketed, Status: Operative, Count:2}",True
1749508.9562,5425102.4431,232,South Coromandel St,ChargeNet NZ,ChargeNet NZ,"66 Coromandel St, Wellington 6021, NZ",True,1,False,Unlimited,False,-41.311693,174.786123,AC,2019/09/26 00:00:00+00,2,"{AC, 7 kW, Type 2 Socketed, Status: Operative, Count:2}",True
1750415.9656,5424336.6556,233,Kilbirnie,ChargeNet NZ,ChargeNet NZ,"78 Rongotai Rd, Wellington 6022, New Zealand",True,1,False,Unlimited,False,-41.318419,174.797143,DC,2019/10/30 00:00:00+00,2,"{DC, 50 kW, Type 2 CCS, Status: Operative, Count:1},{DC, 50 kW, CHAdeMO, Status: Operative, Count:1}",True
1749391.8254,5424257.1703,234,Wellington Zoo,ChargeNet NZ,ChargeNet NZ,"Manchester Street , Wellington 6021, New Zealand",True,1,False,Unlimited,False,-41.319325,174.784932,DC,2019/07/24 00:00:00+00,4,"{DC, 25 kW, CHAdeMO, Status: Operative, Count:2},{DC, 25 kW, Type 2 CCS, Status: Inoperative, Count:1},{DC, 25 kW, Type 2 CCS, Status: Operative, Count:1}",True
1748338.5268,5423830.9361,235,Stanley St,ChargeNet NZ,ChargeNet NZ,"66 Stanley St, Wellington 6023, NZ",True,1,False,Unlimited,False,-41.323357,174.772457,AC,2020/03/06 00:00:00+00,2,"{AC, 7 kW, Type 2 Socketed, Status: Operative, Count:2}",True
1748660.6589,5423116.7243,236,Melbourne Rd,ChargeNet NZ,ChargeNet NZ,"Melbourne Rd, Wellington 6023, NZ",True,1,False,Unlimited,False,-41.329728,174.776479,AC,2019/12/05 00:00:00+00,2,"{AC, 7 kW, Type 2 Socketed, Status: Operative, Count:2}",True
1749454.2106,5423049.446,237,Hornsey Rd,ChargeNet NZ,ChargeNet NZ,"Hornsey Rd, Wellington 6023, NZ",True,1,False,Unlimited,False,-41.330187,174.785974,AC,2019/11/26 00:00:00+00,2,"{AC, 7 kW, Type 2 Socketed, Status: Operative, Count:2}",True
1748969.0545,5422980.4496,238,Jackson St,ChargeNet NZ,ChargeNet NZ,"Jackson St, Wellington 6023, NZ",True,1,False,Unlimited,False,-41.330898,174.780196,AC,2019/12/05 00:00:00+00,2,"{AC, 7 kW, Type 2 Socketed, Status: Operative, Count:2}",True
1748381.2951,5422617.8535,239,Island Bay,ChargeNet NZ,ChargeNet NZ,"6 Medway St, Wellington 6023, New Zealand",True,1,False,Unlimited,False,-41.334271,174.773264,DC,2019/10/04 00:00:00+00,2,"{DC, 25 kW, Type 2 CCS, Status: Operative, Count:1},{DC, 25 kW, CHAdeMO, Status: Operative, Count:1}",True
1615421.7881,5423697.4716,240,Richmond,ChargeNet NZ,Network Tasman Ltd,"280 Queen Street, Richmond 7020, NZ",True,1,False,Unlimited,False,-41.338061,173.184316,DC,2018/08/01 00:00:00+00,2,"{DC, 50 kW, Type 2 CCS, Status: Operative, Count:1},{DC, 50 kW, CHAdeMO, Status: Operative, Count:1}",True
1680322.2193,5409651.9858,241,Spring Creek,ChargeNet NZ,ChargeNet NZ,"2226 State Highway 1, Blenheim 7202, NZ",True,1,False,Unlimited,False,-41.460704,173.961785,DC,2018/05/01 00:00:00+00,2,"{DC, 50 kW, Type 2 CCS, Status: Operative, Count:1},{DC, 50 kW, CHAdeMO, Status: Operative, Count:1}",True
1677034.5219,5404266.9139,242,Blenheim,ChargeNet NZ,ChargeNet NZ,"1 Westwood Avenue, Blenheim 7271, NZ",True,1,False,Unlimited,False,-41.509526,173.923111,DC,2018/07/04 00:00:00+00,2,"{DC, 50 kW, Type 2 CCS, Status: Operative, Count:1},{DC, 50 kW, CHAdeMO, Status: Operative, Count:1}",True
1680059.2477,5403655.9316,243,Blenheim,ChargeNet NZ,The Warehouse Ltd,"Cnr Kinross and Redwood Streets, Blenheim 7201, NZ",True,1,False,Unlimited,False,-41.514732,173.959433,DC,2021/01/26 00:00:00+00,2,"{DC, 25 kW, Type 2 CCS, Status: Operative, Count:1},{DC, 25 kW, CHAdeMO, Status: Operative, Count:1}",False
1483506.1653,5376158.5536,244,Westport,ChargeNet NZ,ChargeNet NZ,"5 Adderley Street, Westport 7825, NZ",True,1,False,Unlimited,False,-41.757863,171.598685,DC,2018/12/06 00:00:00+00,2,"{DC, 50 kW, Type 2 CCS, Status: Operative, Count:1},{DC, 50 kW, CHAdeMO, Status: Operative, Count:1}",True
1543953.8441,5372259.7441,245,Murchison,ChargeNet NZ,ChargeNet NZ,"Fairfax St, Murchison 7007, NZ",True,1,False,Unlimited,False,-41.799545,172.325373,DC,2019/11/27 00:00:00+00,2,"{DC, 50 kW, Type 2 CCS, Status: Operative, Count:1},{DC, 50 kW, CHAdeMO, Status: Operative, Count:1}",True
1693917.3153,5368581.867,246,Ward,ChargeNet NZ,ChargeNet NZ,"7326 State Highway 1, Ward 7285, NZ",True,1,False,Unlimited,False,-41.829084,174.130996,DC,2019/05/01 00:00:00+00,2,"{DC, 50 kW, Type 2 CCS, Status: Operative, Count:1},{DC, 50 kW, CHAdeMO, Status: Operative, Count:1}",True
1506281.9405,5336270.923,247,Reefton,ChargeNet NZ,ChargeNet NZ,"47 Broadway, Reefton 7830, NZ",True,1,False,Unlimited,False,-42.120066,171.866254,DC,2018/10/02 00:00:00+00,2,"{DC, 25 kW, Type 2 CCS, Status: Operative, Count:1},{DC, 25 kW, CHAdeMO, Status: Operative, Count:1}",True
1655929.49,5306920.0961,248,Kaikoura,ChargeNet NZ,ChargeNet NZ,"124-128 Beach Rd, Kaikoura 7300, NZ",True,1,False,Unlimited,False,-42.387995,173.679475,DC,2018/10/26 00:00:00+00,2,"{DC, 50 kW, Type 2 CCS, Status: Operative, Count:1},{DC, 50 kW, CHAdeMO, Status: Operative, Count:1}",True
1656169.6512,5305326.1279,249,Kaikoura,ChargeNet NZ,ChargeNet NZ,"51 West End, Kaikoura 7300, New Zealand",True,1,False,Unlimited,False,-42.402332,173.682548,DC,2016/10/31 00:00:00+00,2,"{DC, 50 kW, Type 2 CCS, Status: Operative, Count:1},{DC, 50 kW, CHAdeMO, Status: Operative, Count:1}",True
1453250.1203,5298872.0271,250,Greymouth,ChargeNet NZ,The Warehouse Ltd,"174 Mawhera Quay, Greymouth 7805, NZ",True,1,False,Unlimited,False,-42.448596,171.215473,DC,2022/04/01 00:00:00+00,2,"{DC, 25 kW, Type 2 CCS, Status: Operative, Count:1},{DC, 25 kW, CHAdeMO, Status: Operative, Count:1}",False
1452700.7403,5298698.4809,251,Greymouth,ChargeNet NZ,ChargeNet NZ,"13 Tarapuhi Street, Greymouth 7805, New Zealand",True,1,False,Unlimited,False,-42.450054,171.208751,DC,2017/03/16 00:00:00+00,2,"{DC, 50 kW, Type 2 CCS, Status: Operative, Count:1},{DC, 50 kW, CHAdeMO, Status: Operative, Count:1}",True
1433219.7289,5268620.6343,252,Hokitika,ChargeNet NZ,ChargeNet NZ,"116 Revell Street, Hokitika 7810, NZ",True,1,False,Unlimited,False,-42.716811,170.96319,DC,2018/07/24 00:00:00+00,2,"{DC, 50 kW, Type 2 CCS, Status: Operative, Count:1},{DC, 50 kW, CHAdeMO, Status: Operative, Count:1}",True
1587477.4515,5264239.3919,253,Culverden,ChargeNet NZ,ChargeNet NZ,"27A Mountain View Rd, Culverden 7392, New Zealand",True,1,False,Unlimited,False,-42.774278,172.846924,DC,2017/12/21 00:00:00+00,2,"{DC, 50 kW, Type 2 CCS, Status: Operative, Count:1},{DC, 50 kW, CHAdeMO, Status: Operative, Count:1}",True
1622320.3683,5259938.2967,254,Cheviot,ChargeNet NZ,ChargeNet NZ,"4 Seddon St, Cheviot 7310, NZ",True,1,False,Unlimited,False,-42.812788,173.273014,DC,2019/05/31 00:00:00+00,2,"{DC, 50 kW, Type 2 CCS, Status: Operative, Count:1},{DC, 50 kW, CHAdeMO, Status: Operative, Count:1}",True
1482342.9041,5255653.7198,255,Otira,ChargeNet NZ,Portia Properties Ltd,"Otira Hwy, Otira 7875, New Zealand",True,1,False,Unlimited,False,-42.842644,171.560183,DC,2020/02/27 00:00:00+00,2,"{DC, 50 kW, Type 2 CCS, Status: Operative, Count:1},{DC, 50 kW, CHAdeMO, Status: Operative, Count:1}",True
1482768.3659,5244641.9512,256,Arthurs Pass,ChargeNet NZ,ChargeNet NZ,"80 State Highway 73, Arthurs Pass 7875, New Zealand",True,1,False,Unlimited,False,-42.941842,171.563088,Mixed,2020/10/01 00:00:00+00,3,"{DC, 50 kW, Type 2 CCS, Status: Operative, Count:1},{DC, 50 kW, CHAdeMO, Status: Operative, Count:1},{AC, 22 kW, Type 2 Socketed, Status: Operative, Count:1}",True
1578079.822,5221768.1865,257,Amberley,ChargeNet NZ,ChargeNet NZ,"123 Carters Rd, Amberley 7410, NZ",True,1,False,Unlimited,False,-43.156522,172.730383,DC,2018/04/05 00:00:00+00,2,"{DC, 50 kW, Type 2 CCS, Status: Operative, Count:1},{DC, 50 kW, CHAdeMO, Status: Operative, Count:1}",True
1495646.6035,5215245.304,258,Castle Hill,ChargeNet NZ,ChargeNet NZ,"3 Castle Hill Dr, Castle Hill 7580, New Zealand",True,1,False,Unlimited,False,-43.208364,171.715379,Mixed,2020/10/15 00:00:00+00,3,"{DC, 50 kW, CHAdeMO, Status: Operative, Count:1},{DC, 50 kW, Type 2 CCS, Status: Operative, Count:1},{AC, 22 kW, Type 2 Socketed, Status: Operative, Count:1}",True
1567465.5539,5203082.3853,259,Rangiora,ChargeNet NZ,ChargeNet NZ,"2 Southbrook Rd, Rangiora 7400, NZ",True,1,False,Unlimited,False,-43.324396,172.598728,DC,2018/12/17 00:00:00+00,2,"{DC, 50 kW, CHAdeMO, Status: Operative, Count:1},{DC, 50 kW, Type 2 CCS, Status: Inoperative, Count:1}",True
1513186.9463,5201118.4491,260,Springfield,ChargeNet NZ,ChargeNet NZ,"SH 73, Springfield 7681, New Zealand",True,1,False,Unlimited,False,-43.33777,171.929037,Mixed,2020/10/22 00:00:00+00,3,"{DC, 50 kW, Type 2 CCS, Status: Operative, Count:1},{DC, 50 kW, CHAdeMO, Status: Operative, Count:1},{AC, 22 kW, Type 2 Socketed, Status: Operative, Count:1}",True
1572465.6375,5196718.7809,261,Kaiapoi,ChargeNet NZ,ChargeNet NZ,"31 Sewell Street, Kaiapoi 7630, New Zealand",True,1,False,Unlimited,False,-43.381896,172.660077,DC,2019/06/18 00:00:00+00,2,"{DC, 50 kW, Type 2 CCS, Status: Operative, Count:1},{DC, 50 kW, CHAdeMO, Status: Operative, Count:1}",True
1371950.2907,5192693.2592,262,Franz Josef,ChargeNet NZ,ChargeNet NZ,"63 Cron Street, Franz Joseph Glacier 7886, New Zealand",True,1,False,Unlimited,False,-43.38398,170.184601,DC,2019/07/09 00:00:00+00,4,"{DC, 50 kW, CHAdeMO, Status: Operative, Count:1},{DC, 50 kW, Type 2 CCS, Status: Operative, Count:1},{DC, 25 kW, CHAdeMO, Status: Operative, Count:1},{DC, 25 kW, Type 2 CCS, Status: Operative, Count:1}",True
1569440.661,5187992.8714,263,Northwood,ChargeNet NZ,ChargeNet NZ,"2 Mounter Ave, Christchurch 8051, New Zealand",True,1,False,Unlimited,False,-43.460349,172.622245,DC,2016/12/04 00:00:00+00,2,"{DC, 50 kW, Type 2 CCS, Status: Operative, Count:1},{DC, 50 kW, CHAdeMO, Status: Operative, Count:1}",True
1572579.4785,5186416.0053,264,Prestons,ChargeNet NZ,Orion New Zealand Ltd,"420 Prestons Rd, Christchruch 8083, NZ",False,1,False,Unlimited,False,-43.474669,172.660965,AC,,2,"{AC, 22 kW, Type 2 Socketed, Status: Operative, Count:2}",False
1564114.2244,5186037.2624,265,Harewood,ChargeNet NZ,Orion New Zealand Ltd,"800 Harewood Rd, Christchruch 8051, New Zealand",False,1,False,Unlimited,False,-43.477721,172.556276,AC,,2,"{AC, 22 kW, Type 2 Socketed, Status: Operative, Count:2}",False
1576293.8087,5185626.1467,266,Parklands Library,ChargeNet NZ,Orion New Zealand Ltd,"46 Queenspark Drive, Christchruch 8083, NZ",True,1,False,Unlimited,False,-43.481908,172.706855,AC,,2,"{AC, 22 kW, Type 2 Socketed, Status: Operative, Count:2}",False
1527884.636,5184468.6397,267,Darfield,ChargeNet NZ,ChargeNet NZ,"33 South Terrace, Darfield 7510, New Zealand",True,1,False,Unlimited,False,-43.489228,172.108133,DC,2020/03/10 00:00:00+00,2,"{DC, 50 kW, Type 2 CCS, Status: Operative, Count:1},{DC, 50 kW, CHAdeMO, Status: Operative, Count:1}",True
1578276.578,5182791.3868,268,New Brighton,ChargeNet NZ,Orion New Zealand Ltd,"213 Marine Parade, Christchruch 8061, NZ",True,1,False,Unlimited,False,-43.507493,172.73126,AC,,2,"{AC, 22 kW, Type 2 Socketed, Status: Operative, Count:2}",False
1575177.6293,5182298.9997,269,Wainoni,ChargeNet NZ,ChargeNet NZ,"174 Wainoni Rd, Christchurch 8061, New Zealand",True,1,False,Unlimited,False,-43.51183,172.692901,DC,2020/11/20 00:00:00+00,2,"{DC, 50 kW, Type 2 CCS, Status: Operative, Count:1},{DC, 50 kW, CHAdeMO, Status: Operative, Count:1}",True
1566687.777,5181662.0254,270,Fendalton,ChargeNet NZ,Orion New Zealand Ltd,"23 Memorial Ave, Christchruch 8053, NZ",True,1,False,Unlimited,False,-43.517235,172.587829,AC,,2,"{AC, 22 kW, Type 2 Socketed, Status: Operative, Count:2}",False
1566056.3526,5181155.8709,271,Canterbury Uni,ChargeNet NZ,Orion New Zealand Ltd,"Science Rd, Christchruch 8041, NZ",True,1,False,Unlimited,False,-43.521764,172.579985,AC,,2,"{AC, 22 kW, Type 2 Socketed, Status: Operative, Count:2}",False
1565307.1861,5180652.3809,272,Ilam,ChargeNet NZ,Orion New Zealand Ltd,"47C - 57C Peer St, Christchruch 8041, NZ",True,1,False,Unlimited,False,-43.526263,172.570683,AC,,4,"{AC, 22 kW, Type 2 Socketed, Status: Operative, Count:4}",False
1569300.156,5180438.1281,273,Botanic Gardens,ChargeNet NZ,Orion New Zealand Ltd,"Car Park, Christchruch 8013, NZ",True,1,False,Unlimited,False,-43.528367,172.620082,AC,,2,"{AC, 22 kW, Type 2 Socketed, Status: Operative, Count:2}",False
1570387.9373,5179185.9085,274,Durham St,ChargeNet NZ,ChargeNet NZ,"175 Durham St South, Christchurch 8011, New Zealand",True,1,False,Unlimited,False,-43.539686,172.633475,DC,2021/01/21 00:00:00+00,4,"{DC, 50 kW, CHAdeMO, Status: Operative, Count:1},{DC, 50 kW, Type 2 CCS, Status: Operative, Count:1},{DC, 25 kW, CHAdeMO, Status: Operative, Count:1},{DC, 25 kW, Type 2 CCS, Status: Operative, Count:1}",True
1570854.9998,5179186.2846,275,Moorhouse Ave,ChargeNet NZ,Orion New Zealand Ltd,"297 Moorhouse Ave, Christchurch 8011, NZ",False,1,False,Unlimited,False,-43.539701,172.639256,AC,,4,"{AC, 22 kW, Type 2 Socketed, Status: Operative, Count:4}",False
1572045.7976,5177208.1272,276,St Martins,ChargeNet NZ,Orion New Zealand Ltd,"92 Wilsons Rd, Christchruch 8023, NZ",True,1,False,Unlimited,False,-43.557558,172.653893,AC,,2,"{AC, 22 kW, Type 2 Socketed, Status: Operative, Count:2}",False
1578804.8921,5176778.1799,277,Redcliffs,ChargeNet NZ,BP2go Redcliffs,"170 Main Road, Christchurch 8081, New Zealand",True,1,False,Unlimited,False,-43.561652,172.737561,DC,2019/06/07 00:00:00+00,2,"{DC, 50 kW, Type 2 CCS, Status: Inoperative, Count:1},{DC, 50 kW, CHAdeMO, Status: Inoperative, Count:1}",True
1580509.5145,5175928.7352,278,Sumner,ChargeNet NZ,Orion New Zealand Ltd,"26 Nayland St, Sumner 8081, NZ",True,1,False,Unlimited,False,-43.569347,172.758637,AC,,2,"{AC, 22 kW, Type 2 Socketed, Status: Operative, Count:2}",False
1564870.1078,5174700.5047,279,Halswell,ChargeNet NZ,Orion New Zealand Ltd,"346 Halswell Rd, Christchurch 8025, New Zealand",True,1,False,Unlimited,False,-43.579833,172.564889,Mixed,,4,"{AC, 22 kW, Type 2 Socketed, Status: Operative, Count:2},{DC, 50 kW, CHAdeMO, Status: Operative, Count:1},{DC, 50 kW, Type 2 CCS, Status: Operative, Count:1}",True
1550687.271,5172943.6082,280,Rolleston,ChargeNet NZ,The Warehouse Ltd,"Rolleston Dr, Christchurch 7614, NZ",True,1,False,Unlimited,False,-43.594848,172.389072,DC,2021/02/15 00:00:00+00,4,"{DC, 25 kW, CHAdeMO, Status: Operative, Count:2},{DC, 25 kW, Type 2 CCS, Status: Operative, Count:2}",False
1550216.7993,5172707.3373,281,Rolleston,ChargeNet NZ,Orion New Zealand Ltd,"92 Rolleston Drive, Rolleston 7614, New Zealand",True,1,False,Unlimited,False,-43.596944,172.383222,Mixed,,4,"{AC, 22 kW, Type 2 Socketed, Status: Operative, Count:2},{DC, 50 kW, CHAdeMO, Status: Operative, Count:1},{DC, 50 kW, Type 2 CCS, Status: Operative, Count:1}",True
1576872.8859,5172115.236,282,Te Ana ,ChargeNet NZ,Lyttelton Port Company Ltd,"29 Godley Quay, Christchurch 8082, New Zealand",False,1,True,Unlimited,False,-43.60358,172.71344,AC,2021/11/03 00:00:00+00,2,"{AC, 22 kW, Type 2 Socketed, Status: Operative, Count:2}",True
1490916.479,5168103.8047,283,Methven,ChargeNet NZ,Electricity Ashburton Ltd,"160 Main St, Methven 7730, New Zealand",True,1,False,Unlimited,False,-43.63206,171.647752,DC,,2,"{DC, 50 kW, Type 2 CCS, Status: Operative, Count:1},{DC, 50 kW, CHAdeMO, Status: Operative, Count:1}",True
1558223.5984,5167968.8789,284,Lincoln Library,ChargeNet NZ,Orion New Zealand Ltd,"18 Lyttelton Street, Lincoln 7608, New Zealand",True,1,True,Unlimited,False,-43.6401,172.48205,AC,2021/07/06 00:00:00+00,2,"{AC, 7 kW, Type 2 Socketed, Status: Operative, Count:2}",False
1557588.7168,5167803.7318,285,Lincoln,ChargeNet NZ,Orion New Zealand Ltd,"77 Gerald St, Lincoln 7674, New Zealand",True,1,False,Unlimited,False,-43.641551,172.474166,Mixed,,6,"{AC, 22 kW, Type 2 Socketed, Status: Operative, Count:4},{DC, 50 kW, CHAdeMO, Status: Operative, Count:1},{DC, 50 kW, Type 2 CCS, Status: Operative, Count:1}",True
1534948.2286,5165382.5011,286,Dunsandel Com Centre,ChargeNet NZ,Orion New Zealand Ltd,"Dunsandel Community Centre, Dunsandel 7682, New Zealand",True,1,True,Unlimited,False,-43.661714,172.19319,AC,2021/07/06 00:00:00+00,2,"{AC, 7 kW, Type 2 Socketed, Status: Operative, Count:2}",False
1521539.1238,5154858.4363,287,Rakaia,ChargeNet NZ,Electricity Ashburton Ltd,"41 Bridge Street, Rakaia 7710, New Zealand",True,1,False,Unlimited,False,-43.755164,172.02537,DC,,2,"{DC, 50 kW, Type 2 CCS, Status: Operative, Count:1},{DC, 50 kW, CHAdeMO, Status: Operative, Count:1}",True
1543564.0204,5154420.6474,288,Leeston,ChargeNet NZ,Orion New Zealand Ltd,"18 Gallipoli St, Leeston 7632, NZ",True,1,True,Unlimited,False,-43.761111,172.29889,DC,2021/05/04 00:00:00+00,2,"{DC, 25 kW, Type 2 CCS, Status: Operative, Count:1},{DC, 25 kW, CHAdeMO, Status: Operative, Count:1}",True
1583138.6179,5153616.7039,289,Little River,ChargeNet NZ,Orion New Zealand Ltd,"4235A Christchurch Akaroa Road, Little River 7591, New Zealand",True,1,False,Unlimited,False,-43.770308,172.790497,Mixed,2017/10/30 00:00:00+00,4,"{AC, 22 kW, Type 2 Socketed, Status: Operative, Count:2},{DC, 50 kW, Type 2 CCS, Status: Operative, Count:1},{DC, 50 kW, CHAdeMO, Status: Operative, Count:1}",False
1597429.8063,5150031.2969,290,Akaroa,ChargeNet NZ,Orion New Zealand Ltd,"40 Rue Brittan, Akaroa 7520, New Zealand",True,1,False,Unlimited,False,-43.802778,172.968048,AC,,2,"{AC, 7 kW, Type 2 Socketed, Status: Operative, Count:2}",False
1597147.4128,5149401.3378,291,Akaroa,ChargeNet NZ,Orion New Zealand Ltd,"49 Beach Rd, Akaroa 7520, NZ",True,1,False,Unlimited,False,-43.808449,172.964534,AC,,2,"{AC, 22 kW, Type 2 Socketed, Status: Operative, Count:2}",False
1499250.0617,5137882.3918,292,Ashburton,ChargeNet NZ,Electricity Ashburton Ltd,"109 West Street, Ashburton 7700, New Zealand",True,1,False,Unlimited,False,-43.90528,171.745359,Mixed,,3,"{DC, 50 kW, Type 2 CCS, Status: Operative, Count:1},{DC, 50 kW, CHAdeMO, Status: Operative, Count:1},{AC, 22 kW, Type 2 Socketed, Status: Operative, Count:1}",True
1397618.9639,5124697.654,293,Tekapo,ChargeNet NZ,ChargeNet NZ,"22 Rapuwai Lane, Tekapo 7999, New Zealand",True,1,False,Unlimited,False,-44.002983,170.475634,DC,2019/08/29 00:00:00+00,2,"{DC, 25 kW, Type 2 CCS, Status: Operative, Count:1},{DC, 25 kW, CHAdeMO, Status: Operative, Count:1}",True
1397721.9827,5124651.1127,294,Tekapo,ChargeNet NZ,Alpine Energy Limited,"State Highway 8, Tekapo 7999, New Zealand",True,1,False,Unlimited,False,-44.00343,170.4769,DC,2017/06/29 00:00:00+00,2,"{DC, 50 kW, Type 2 CCS, Status: Operative, Count:1},{DC, 50 kW, CHAdeMO, Status: Operative, Count:1}",True
1459346.2912,5116323.0576,295,Geraldine,ChargeNet NZ,Alpine Energy Limited,"14 Geraldine-Fairlie Hwy, Geraldine 7930, New Zealand",True,1,False,Unlimited,False,-44.092764,171.242916,DC,2017/11/15 00:00:00+00,2,"{DC, 50 kW, Type 2 CCS, Status: Operative, Count:1},{DC, 50 kW, CHAdeMO, Status: Operative, Count:1}",True
1426275.5845,5114708.7009,296,Fairlie,ChargeNet NZ,Alpine Energy Limited,"Opposite 53 Main St, Fairlie 7925, New Zealand",True,1,False,Unlimited,False,-44.10019,170.829522,DC,2017/11/16 00:00:00+00,2,"{DC, 50 kW, Type 2 CCS, Status: Operative, Count:1},{DC, 50 kW, CHAdeMO, Status: Operative, Count:1}",True
1463792.7946,5111461.1676,297,Orari ,ChargeNet NZ,Alpine Energy Limited,"1 Orari Station Road, Orari 7992, New Zealand",True,1,True,Unlimited,False,-44.137358481,171.2971819,DC,2022/07/03 00:00:00+00,2,"{DC, 50 kW, CHAdeMO, Status: Operative, Count:1},{DC, 175 kW, Type 2 CCS, Status: Operative, Count:1}",True
1462409.8469,5099842.6693,298,Temuka,ChargeNet NZ,ChargeNet NZ,"185 King St, Temuka 7920, NZ",True,1,False,Unlimited,False,-44.241656,171.276856,DC,2018/08/22 00:00:00+00,2,"{DC, 25 kW, Type 2 CCS, Status: Operative, Count:1},{DC, 25 kW, CHAdeMO, Status: Operative, Count:1}",True
1368512.0471,5095531.4135,299,Twizel,ChargeNet NZ,Alpine Energy Limited,"Opposite 64 MacKenzie Drive, Twizel 7901, New Zealand",True,1,False,Unlimited,False,-44.256647,170.100189,DC,2017/11/15 00:00:00+00,2,"{DC, 50 kW, Type 2 CCS, Status: Operative, Count:1},{DC, 50 kW, CHAdeMO, Status: Operative, Count:1}",True
1459642.5085,5084100.9542,300,Timaru,ChargeNet NZ,ChargeNet NZ,"98 Evans St, Timaru 7910, New Zealand",True,1,False,Unlimited,False,-44.382784,171.23798,DC,2020/12/03 00:00:00+00,4,"{DC, 50 kW, CHAdeMO, Status: Operative, Count:1},{DC, 50 kW, Type 2 CCS, Status: Operative, Count:1},{DC, 25 kW, CHAdeMO, Status: Operative, Count:1},{DC, 25 kW, Type 2 CCS, Status: Operative, Count:1}",True
1460918.2475,5082147.2158,301,Timaru,ChargeNet NZ,Alpine Energy Limited,"26A North Street, Timaru 7910, New Zealand",True,1,False,Unlimited,False,-44.400611,171.253465,DC,2016/04/17 00:00:00+00,2,"{DC, 50 kW, Type 2 CCS, Status: Operative, Count:1},{DC, 50 kW, CHAdeMO, Status: Inoperative, Count:1}",True
1460796.7787,5081959.3738,302,Timaru,ChargeNet NZ,The Warehouse Ltd,"Cnr Victoria and Browne St, Timaru 7910, NZ",True,1,True,Unlimited,False,-44.402278,171.25189,DC,2021/08/11 00:00:00+00,2,"{DC, 25 kW, Type 2 CCS, Status: Operative, Count:1},{DC, 25 kW, CHAdeMO, Status: Operative, Count:1}",False
1358786.1208,5069387.5418,303,Omarama,ChargeNet NZ,Network Waitaki,"2 Sutherland Road, Omararu 9412, New Zealand",True,1,False,Unlimited,False,-44.488533,169.966399,DC,,2,"{DC, 50 kW, CHAdeMO, Status: Operative, Count:1},{DC, 50 kW, Type 2 CCS, Status: Operative, Count:1}",True
1294087.4051,5043779.6712,304,Wanaka,ChargeNet NZ,ChargeNet NZ,"42 Ardmore St, Wanaka 9305, New Zealand",True,1,False,Unlimited,False,-44.694064,169.139139,DC,2018/01/03 00:00:00+00,2,"{DC, 50 kW, Type 2 CCS, Status: Operative, Count:1},{DC, 50 kW, CHAdeMO, Status: Operative, Count:1}",True
1399721.8821,5043588.3033,305,Kurow,ChargeNet NZ,Network Waitaki,"14 Bledisloe St, Kurow 9435, New Zealand",True,1,False,Unlimited,False,-44.733077,170.470618,DC,,2,"{DC, 50 kW, CHAdeMO, Status: Operative, Count:1},{DC, 50 kW, Type 2 CCS, Status: Operative, Count:1}",True
1445249.7942,5044637.7835,306,Waimate,ChargeNet NZ,Alpine Energy Limited,"125 Queen Street, Waimate 7924, New Zealand",True,1,False,Unlimited,False,-44.734921,171.045541,DC,2016/04/17 00:00:00+00,2,"{DC, 50 kW, Type 2 CCS, Status: Operative, Count:1},{DC, 50 kW, CHAdeMO, Status: Operative, Count:1}",True
1235382.402,5023410.4326,307,Glenorchy,ChargeNet NZ,ChargeNet NZ,"45 Mull St, Glenorchy 9372, New Zealand",True,1,False,Unlimited,False,-44.849429,168.38587,DC,2019/11/12 00:00:00+00,2,"{DC, 25 kW, Type 2 CCS, Status: Operative, Count:1},{DC, 25 kW, CHAdeMO, Status: Operative, Count:1}",True
1264906.6446,5007117.0704,308,Frankton,ChargeNet NZ,ChargeNet NZ,"302 Hawthorne Drive, Queenstown 9300, New Zealand",True,1,False,Unlimited,False,-45.010172,168.747621,DC,2018/03/14 00:00:00+00,2,"{DC, 50 kW, CHAdeMO, Status: Operative, Count:1},{DC, 50 kW, Type 2 CCS, Status: Operative, Count:1}",True
1258252.9497,5004465.3554,309,Queenstown,ChargeNet NZ,ChargeNet NZ,"9 Athol St, Queenstown 9300, NZ",True,1,False,Unlimited,False,-45.030802,168.661624,DC,2019/12/04 00:00:00+00,4,"{DC, 50 kW, CHAdeMO, Status: Operative, Count:2},{DC, 50 kW, Type 2 CCS, Status: Operative, Count:2}",True
1300451.42,5005984.5448,310,Cromwell,ChargeNet NZ,ChargeNet NZ,"2A The Mall, Cromwell 9310, New Zealand",True,1,False,Unlimited,False,-45.03624,169.196961,DC,2018/04/25 00:00:00+00,2,"{DC, 50 kW, Type 2 CCS, Status: Operative, Count:1},{DC, 50 kW, CHAdeMO, Status: Inoperative, Count:1}",True
1332566.064,5000980.7003,311,Omakau,ChargeNet NZ,ChargeNet NZ,"1 Harvey St, Omakau 9352, New Zealand",True,1,False,Unlimited,False,-45.094048,169.601258,DC,2020/11/17 00:00:00+00,2,"{DC, 50 kW, Type 2 CCS, Status: Operative, Count:1},{DC, 50 kW, CHAdeMO, Status: Operative, Count:1}",True
1440517.2836,5004270.0717,312,Oamaru,ChargeNet NZ,Network Waitaki,"3 Eden St, Oamaru 9400, New Zealand",True,1,False,Unlimited,False,-45.097049,170.973075,DC,,2,"{DC, 50 kW, CHAdeMO, Status: Operative, Count:1},{DC, 50 kW, Type 2 CCS, Status: Operative, Count:1}",True
1371779.2772,4998668.452,313,Ranfurly,ChargeNet NZ,ChargeNet NZ,"31 Charlemont St East, Ranfurly 9332, New Zealand",True,1,False,Unlimited,False,-45.128575,170.097858,DC,2017/12/22 00:00:00+00,2,"{DC, 50 kW, Type 2 CCS, Status: Operative, Count:1},{DC, 50 kW, CHAdeMO, Status: Operative, Count:1}",True
1317111.552,4982261.7541,314,Alexandra,ChargeNet NZ,ChargeNet NZ,"9 Thompson St, Alexandra 9320, New Zealand",True,1,False,Unlimited,False,-45.256207,169.394619,DC,2017/07/02 00:00:00+00,2,"{DC, 50 kW, Type 2 CCS, Status: Operative, Count:1},{DC, 50 kW, CHAdeMO, Status: Operative, Count:1}",True
1428918.5574,4978724.7012,315,Hampden ,ChargeNet NZ,Network Waitaki,"29 London St, Hampden 9410, New Zealand",True,1,False,Unlimited,False,-45.324121,170.816989,DC,,2,"{DC, 50 kW, CHAdeMO, Status: Operative, Count:1},{DC, 50 kW, Type 2 CCS, Status: Operative, Count:1}",True
1186311.9374,4957206.5444,316,Te Anau,ChargeNet NZ,ChargeNet NZ,"6 Mokonui Street, Te Anau 9600, New Zealand",True,1,False,Unlimited,False,-45.416134,167.712652,DC,2019/10/09 00:00:00+00,2,"{DC, 50 kW, Type 2 CCS, Status: Operative, Count:1},{DC, 50 kW, CHAdeMO, Status: Operative, Count:1}",True
1421504.5808,4960617.7271,317,Palmerston,ChargeNet NZ,ChargeNet NZ,"30 Sanday Street, Palmerston 9430, New Zealand",True,1,False,Unlimited,False,-45.485131,170.715903,DC,2020/12/08 00:00:00+00,2,"{DC, 50 kW, Type 2 CCS, Status: Operative, Count:1},{DC, 50 kW, CHAdeMO, Status: Operative, Count:1}",True
1374916.652,4956635.7041,318,Middlemarch,ChargeNet NZ,ChargeNet NZ,"21 Browns Rd, Middlemarch 9597, New Zealand",True,1,False,Unlimited,False,-45.50746,170.118599,DC,2020/12/08 00:00:00+00,2,"{DC, 50 kW, Type 2 CCS, Status: Operative, Count:1},{DC, 50 kW, CHAdeMO, Status: Operative, Count:1}",True
1254706.8743,4950755.4526,319,Athol,ChargeNet NZ,ChargeNet NZ,"1121 Garston Athol Hwy, Athol 9793, New Zealand",True,1,False,Unlimited,False,-45.511126,168.579404,DC,2019/09/23 00:00:00+00,2,"{DC, 50 kW, Type 2 CCS, Status: Operative, Count:1},{DC, 50 kW, CHAdeMO, Status: Operative, Count:1}",True
1312401.1676,4950215.8734,320,Roxburgh,ChargeNet NZ,ChargeNet NZ,"22 Jedburgh St, Roxburgh 9500, New Zealand",True,1,False,Unlimited,False,-45.542158,169.316024,DC,2018/09/03 00:00:00+00,2,"{DC, 50 kW, Type 2 CCS, Status: Operative, Count:1},{DC, 50 kW, CHAdeMO, Status: Operative, Count:1}",True
1245381.4902,4924865.4301,321,Lumsden,ChargeNet NZ,ChargeNet NZ,"14 Diana St, Lumsden 9730, NZ",True,1,False,Unlimited,False,-45.738748,168.441562,DC,2018/05/31 00:00:00+00,2,"{DC, 50 kW, Type 2 CCS, Status: Operative, Count:1},{DC, 50 kW, CHAdeMO, Status: Operative, Count:1}",True
1406974.9126,4918146.6009,322,University of Otago,ChargeNet NZ,ChargeNet NZ,"St David St, Dunedin 9016, NZ",True,1,False,Unlimited,False,-45.863182,170.513276,DC,2018/09/24 00:00:00+00,2,"{DC, 50 kW, Type 2 CCS, Status: Operative, Count:1},{DC, 50 kW, CHAdeMO, Status: Operative, Count:1}",True
1394185.1036,4916732.5076,323,Mosgiel,ChargeNet NZ,ChargeNet NZ,"10 Hartstonge Ave, Mosgiel 9024, NZ",True,1,False,Unlimited,False,-45.872193,170.348074,DC,2018/11/26 00:00:00+00,2,"{DC, 50 kW, Type 2 CCS, Status: Operative, Count:1},{DC, 50 kW, CHAdeMO, Status: Operative, Count:1}",True
1406253.1671,4916372.2828,324,Dunedin Central,ChargeNet NZ,ChargeNet NZ,"Water St, Dunedin 9016, NZ",True,1,False,Unlimited,False,-45.878934,170.503272,DC,2020/05/01 00:00:00+00,4,"{DC, 50 kW, CHAdeMO, Status: Operative, Count:1},{DC, 50 kW, Type 2 CCS, Status: Operative, Count:1},{DC, 25 kW, CHAdeMO, Status: Operative, Count:1},{DC, 25 kW, Type 2 CCS, Status: Operative, Count:1}",True
1406151.7541,4914965.5199,325,Dunedin South,ChargeNet NZ,The Warehouse Ltd,"64 Hillside Rd, Dunedin 9012, NZ",True,1,False,Unlimited,False,-45.891555,170.501399,DC,2021/02/01 00:00:00+00,2,"{DC, 25 kW, Type 2 CCS, Status: Inoperative, Count:1},{DC, 25 kW, CHAdeMO, Status: Inoperative, Count:1}",False
1405957.449,4914923.619,326,Dunedin South,ChargeNet NZ,ChargeNet NZ,"86 Hillside Rd, Dunedin 9012, New Zealand",True,1,False,Unlimited,False,-45.891877,170.49888,DC,2019/08/11 00:00:00+00,2,"{DC, 50 kW, Type 2 CCS, Status: Operative, Count:1},{DC, 50 kW, CHAdeMO, Status: Operative, Count:1}",True
1343028.6481,4910290.4292,327,Lawrence,ChargeNet NZ,ChargeNet NZ,"19 Ross Pl, Lawrence 9532, New Zealand",True,1,False,Unlimited,False,-45.912893,169.686481,DC,2018/02/22 00:00:00+00,2,"{DC, 50 kW, Type 2 CCS, Status: Operative, Count:1},{DC, 50 kW, CHAdeMO, Status: Operative, Count:1}",True
1310227.1505,4905460.1396,328,Tapanui,ChargeNet NZ,ChargeNet NZ,"44 Northumberland St, Tapanui 9522, New Zealand",True,1,False,Unlimited,False,-45.94324,169.261463,DC,2019/10/04 00:00:00+00,2,"{DC, 50 kW, Type 2 CCS, Status: Operative, Count:1},{DC, 50 kW, CHAdeMO, Status: Operative, Count:1}",True
1286434.375,4886861.5893,329,Gore,ChargeNet NZ,ChargeNet NZ,"4 Irk St, Gore 9710, New Zealand",True,1,False,Unlimited,False,-46.09977,168.94303,DC,2018/03/12 00:00:00+00,2,"{DC, 50 kW, Type 2 CCS, Status: Operative, Count:1},{DC, 50 kW, CHAdeMO, Status: Operative, Count:1}",True
1365430.9943,4888533.122,330,Milton,ChargeNet NZ,ChargeNet NZ,"207 Union St, Milton 9220, NZ",True,1,False,Unlimited,False,-46.116449,169.964229,DC,2018/04/25 00:00:00+00,2,"{DC, 50 kW, Type 2 CCS, Status: Operative, Count:1},{DC, 50 kW, CHAdeMO, Status: Operative, Count:1}",True
1189818.9027,4877113.4723,331,Tuatapere,ChargeNet NZ,ChargeNet NZ,"66 Main Road, Tuatapere 9620, NZ",True,1,False,Unlimited,False,-46.136031,167.689386,DC,2020/10/21 00:00:00+00,2,"{DC, 25 kW, Type 2 CCS, Status: Operative, Count:1},{DC, 25 kW, CHAdeMO, Status: Operative, Count:1}",True
1238972.8968,4879582.7041,332,Winton,ChargeNet NZ,ChargeNet NZ,"293 Great North Road, Winton 9720, New Zealand",True,1,False,Unlimited,False,-46.141652,168.325367,DC,2017/12/18 00:00:00+00,2,"{DC, 50 kW, Type 2 CCS, Status: Operative, Count:1},{DC, 50 kW, CHAdeMO, Status: Operative, Count:1}",True
1348522.0599,4874421.2252,333,Balclutha,ChargeNet NZ,ChargeNet NZ,"23 Charlotte Street, Balclutha 9230, New Zealand",True,1,False,Unlimited,False,-46.237234,169.738245,DC,2017/01/18 00:00:00+00,2,"{DC, 50 kW, Type 2 CCS, Status: Operative, Count:1},{DC, 50 kW, CHAdeMO, Status: Operative, Count:1}",True
1216375.9921,4854730.5962,334,Riverton,ChargeNet NZ,ChargeNet NZ,"163 Palmerston St, Riverton 9822, NZ",True,1,False,Unlimited,False,-46.352154,168.013665,DC,2021/05/03 00:00:00+00,2,"{DC, 25 kW, Type 2 CCS, Status: Operative, Count:1},{DC, 25 kW, CHAdeMO, Status: Operative, Count:1}",True
1242198.2061,4850054.335,335,Invercargill,ChargeNet NZ,The Warehouse Ltd,"70 Leven St, Invercargill 9810, NZ",True,1,False,Unlimited,False,-46.408229,168.344564,DC,2021/02/12 00:00:00+00,2,"{DC, 25 kW, CHAdeMO, Status: Inoperative, Count:1},{DC, 25 kW, Type 2 CCS, Status: Operative, Count:1}",False
1242879.6984,4849711.9964,336,Invercargill,ChargeNet NZ,ChargeNet NZ,"116 Esk Street, Invercargill 9810, New Zealand",True,1,False,Unlimited,False,-46.41166,168.35314,DC,2016/04/19 00:00:00+00,2,"{DC, 50 kW, Type 2 CCS, Status: Operative, Count:1},{DC, 50 kW, CHAdeMO, Status: Operative, Count:1}",True
1343471.957,4850457.6035,337,Owaka,ChargeNet NZ,ChargeNet NZ,"1 Main Road, Owaka 9546, New Zealand",True,1,False,Unlimited,False,-46.45065,169.659753,DC,2021/09/27 00:00:00+00,2,"{DC, 25 kW, Type 2 CCS, Status: Operative, Count:1},{DC, 25 kW, CHAdeMO, Status: Operative, Count:1}",True
1329324.2077,4837924.3675,338,Papatowai,ChargeNet NZ,ChargeNet NZ,"2501 Papatowai Highway, Papatowai 9586, New Zealand",True,1,False,Unlimited,False,-46.557705,169.46859,DC,2020/08/05 00:00:00+00,2,"{DC, 25 kW, Type 2 CCS, Status: Operative, Count:1},{DC, 25 kW, CHAdeMO, Status: Operative, Count:1}",True
1277850.8427,4833843.9016,339,Fortrose,ChargeNet NZ,ChargeNet NZ,"Moray Tce, Fortrose, New Zealand",True,1,False,Unlimited,False,-46.571653,168.795896,DC,2021/09/12 00:00:00+00,2,"{DC, 25 kW, Type 2 CCS, Status: Operative, Count:1},{DC, 25 kW, CHAdeMO, Status: Operative, Count:1}",True
1243513.3494,4828785.2047,340,Bluff,ChargeNet NZ,ChargeNet NZ,"54 Gore St, Bluff 9814, New Zealand",True,1,False,Unlimited,False,-46.599706,168.345328,DC,2019/10/02 00:00:00+00,2,"{DC, 50 kW, Type 2 CCS, Status: Operative, Count:1},{DC, 50 kW, CHAdeMO, Status: Operative, Count:1}",True
1301672.1242,4825128.3619,341,Curio Bay,ChargeNet NZ,ChargeNet NZ,"Mair Rd, Curio Bay 9884, NZ",True,1,False,Unlimited,False,-46.6609,169.100384,DC,2020/10/28 00:00:00+00,2,"{DC, 25 kW, Type 2 CCS, Status: Operative, Count:1},{DC, 25 kW, CHAdeMO, Status: Operative, Count:1}",True
1358790.3426,5069370.3462,342,Network Waitaki Omarama EV Charger,NetworkWaitaki,Network Waitaki,4 Sutherland Rd Omarama 9488,True,0,True,No Limit,False,-44.488689,169.966444,DC,,1,"{DC, 50 kW, , Status: , Count:1}",True
1440553.7153,5004255.2003,343,Network Waitaki Oamaru EV Charger,NetworkWaitaki,Network Waitaki,3A Eden St Oamaru 9400,True,0,True,No Limit,False,-45.097191,170.973533,DC,,1,"{DC, 50 kW, , Status: , Count:1}",True
1428925.5292,4978722.1108,344,Network Waitaki Hamden EV Charger,NetworkWaitaki,Network Waitaki,35 Lincoln St Hampden 9410,True,0,True,No Limit,False,-45.324146,170.817077,DC,,1,"{DC, 50 kW, , Status: , Count:1}",True
1399728.0999,5043584.605,345,Network Waitaki Kurow EV Charger,NetworkWaitaki,Network Waitaki,1 Wynyard St Kurow 9498,True,0,True,No Limit,False,-44.733112,170.470695,DC,,1,"{DC, 50 kW, , Status: , Count:1}",True
